{
"type": "FeatureCollection",
"name": "pakistan_admin1",
"crs": { "type": "name", "properties": { "name": "urn:ogc:def:crs:OGC:1.3:CRS84" } },
"features": [
{ "type": "Feature", "properties": { "province": "AJK" }, "geometry": { "type": "Polygon", "coordinates": [ [ [ 74.199272, 33.046878 ], [ 74.349832, 33.016251 ], [ 74.35318, 32.983131 ], [ 74.318031, 32.9197 ], [ 74.413894, 32.903949 ], [ 74.430062, 32.844655 ], [ 74.471956, 32.778362 ], [ 74.388039, 32.803448 ], [ 74.311539, 32.785965 ], [ 74.253395, 32.846275 ], [ 74.183487, 32.865696 ], [ 74.144028, 32.900188 ], [ 74.030571, 32.927944 ], [ 74.006462, 32.948277 ], [ 73.963821, 32.943371 ], [ 73.926003, 33.001507 ], [ 73.891914, 32.995541 ], [ 73.82016, 33.017311 ], [ 73.78817, 33.007366 ], [ 73.762054, 32.97575 ], [ 73.743797, 33.034973 ], [ 73.695, 33.071934 ], [ 73.590935, 33.101166 ], [ 73.583984, 33.14397 ], [ 73.605827, 33.218117 ], [ 73.538994, 33.394585 ], [ 73.582993, 33.463974 ], [ 73.575264, 33.508419 ], [ 73.596603, 33.544052 ], [ 73.536728, 33.657295 ], [ 73.562569, 33.751102 ], [ 73.524254, 33.81226 ], [ 73.540993, 33.906906 ], [ 73.491631, 33.983322 ], [ 73.513138, 34.041603 ], [ 73.478218, 34.221958 ], [ 73.447056, 34.287564 ], [ 73.409713, 34.32305 ], [ 73.399719, 34.39888 ], [ 73.451661, 34.565826 ], [ 73.581665, 34.587768 ], [ 73.641098, 34.566941 ], [ 73.674423, 34.645828 ], [ 73.663604, 34.694436 ], [ 73.703599, 34.724709 ], [ 73.732209, 34.781104 ], [ 73.833879, 34.826942 ], [ 73.907761, 34.82666 ], [ 73.986373, 34.870544 ], [ 74.05165, 34.955552 ], [ 74.055816, 34.996102 ], [ 74.085265, 35.018326 ], [ 74.060256, 35.074714 ], [ 74.093322, 35.113051 ], [ 74.203377, 35.140918 ], [ 74.29441, 35.140007 ], [ 74.421059, 35.115002 ], [ 74.447716, 35.0844 ], [ 74.488946, 35.078937 ], [ 74.638596, 35.154969 ], [ 74.70607, 35.097061 ], [ 74.815133, 35.04671 ], [ 74.793923, 35.001362 ], [ 74.791412, 34.91478 ], [ 74.809814, 34.941113 ], [ 74.84243, 34.933945 ], [ 74.904129, 34.888828 ], [ 75.010947, 34.862075 ], [ 75.065476, 34.7972 ], [ 75.178391, 34.870959 ], [ 75.18998, 34.854668 ], [ 75.208687, 34.859067 ], [ 75.258446, 34.906844 ], [ 75.359031, 34.782356 ], [ 75.344353, 34.679669 ], [ 75.353875, 34.643795 ], [ 75.396026, 34.590541 ], [ 75.436134, 34.577144 ], [ 75.464637, 34.543388 ], [ 75.350548, 34.562241 ], [ 75.261855, 34.610882 ], [ 75.26606, 34.639549 ], [ 75.24971, 34.647312 ], [ 75.142296, 34.662411 ], [ 75.018747, 34.641498 ], [ 74.910508, 34.683209 ], [ 74.728072, 34.688583 ], [ 74.671304, 34.700699 ], [ 74.580177, 34.770101 ], [ 74.375543, 34.803444 ], [ 74.341262, 34.789692 ], [ 74.307296, 34.800304 ], [ 74.279746, 34.768268 ], [ 74.141792, 34.691199 ], [ 74.049134, 34.684959 ], [ 74.012893, 34.709854 ], [ 73.941559, 34.677201 ], [ 73.92733, 34.64589 ], [ 73.948066, 34.57309 ], [ 73.89534, 34.54667 ], [ 73.886688, 34.514999 ], [ 73.898743, 34.49577 ], [ 73.776985, 34.416301 ], [ 73.763221, 34.359631 ], [ 73.841751, 34.338321 ], [ 73.899406, 34.359813 ], [ 73.976227, 34.264809 ], [ 73.976578, 34.211804 ], [ 73.917076, 34.14211 ], [ 73.885651, 34.075119 ], [ 73.898171, 34.032821 ], [ 74.006072, 34.022442 ], [ 74.123696, 34.055179 ], [ 74.214677, 34.038555 ], [ 74.248688, 34.01382 ], [ 74.261123, 33.924797 ], [ 74.219672, 33.867175 ], [ 74.143342, 33.83014 ], [ 74.065728, 33.8201 ], [ 73.956252, 33.720292 ], [ 74.028442, 33.57468 ], [ 74.09571, 33.570396 ], [ 74.187072, 33.45552 ], [ 74.170746, 33.346648 ], [ 74.102981, 33.270541 ], [ 74.020303, 33.258781 ], [ 74.014274, 33.198249 ], [ 74.09987, 33.172509 ], [ 74.176246, 33.107152 ], [ 74.199272, 33.046878 ] ] ] } },
{ "type": "Feature", "properties": { "province": "Balochistan" }, "geometry": { "type": "MultiPolygon", "coordinates": [ [ [ [ 65.417915, 25.373195 ], [ 65.24958, 25.372639 ], [ 65.226525, 25.315141 ], [ 65.192085, 25.303474 ], [ 64.904305, 25.326529 ], [ 64.701218, 25.307421 ], [ 64.660697, 25.283194 ], [ 64.636803, 25.234306 ], [ 64.642364, 25.201528 ], [ 64.675972, 25.205694 ], [ 64.671806, 25.193195 ], [ 64.697364, 25.186805 ], [ 64.589859, 25.154582 ], [ 64.577636, 25.17736 ], [ 64.61792, 25.219583 ], [ 64.573197, 25.262638 ], [ 64.512084, 25.274583 ], [ 64.476807, 25.260416 ], [ 64.472641, 25.243749 ], [ 64.402084, 25.236251 ], [ 64.22486, 25.312916 ], [ 64.149583, 25.324583 ], [ 64.103196, 25.327083 ], [ 64.091248, 25.324583 ], [ 64.089858, 25.364028 ], [ 64.113746, 25.352917 ], [ 64.118195, 25.360138 ], [ 64.070969, 25.395694 ], [ 64.120141, 25.389862 ], [ 64.103752, 25.399304 ], [ 64.124581, 25.407639 ], [ 64.130691, 25.39486 ], [ 64.150139, 25.396528 ], [ 64.142638, 25.410693 ], [ 64.159859, 25.430417 ], [ 64.137916, 25.433471 ], [ 64.178749, 25.441806 ], [ 64.157081, 25.449863 ], [ 64.182083, 25.459861 ], [ 64.119858, 25.476528 ], [ 64.08014, 25.451529 ], [ 63.997081, 25.459861 ], [ 64.016251, 25.435971 ], [ 63.980972, 25.41986 ], [ 64.002914, 25.416528 ], [ 63.969027, 25.418194 ], [ 63.957639, 25.403473 ], [ 63.98125, 25.41375 ], [ 63.994583, 25.387362 ], [ 64.041527, 25.408751 ], [ 64.041809, 25.377361 ], [ 64.056808, 25.372917 ], [ 64.033753, 25.366528 ], [ 64.072083, 25.350973 ], [ 64.05375, 25.326249 ], [ 63.89014, 25.341528 ], [ 63.692917, 25.385974 ], [ 63.573472, 25.368194 ], [ 63.49625, 25.325971 ], [ 63.478195, 25.286528 ], [ 63.450695, 25.298471 ], [ 63.477639, 25.282362 ], [ 63.477917, 25.242361 ], [ 63.505973, 25.225974 ], [ 63.49514, 25.205418 ], [ 63.125136, 25.257918 ], [ 63.004586, 25.210417 ], [ 62.79264, 25.251806 ], [ 62.530973, 25.267917 ], [ 62.474031, 25.25736 ], [ 62.458195, 25.235972 ], [ 62.473194, 25.221805 ], [ 62.389862, 25.205138 ], [ 62.346805, 25.174584 ], [ 62.328471, 25.118474 ], [ 62.340416, 25.103751 ], [ 62.384581, 25.104861 ], [ 62.374585, 25.094028 ], [ 62.257362, 25.104861 ], [ 62.317361, 25.120138 ], [ 62.306526, 25.174306 ], [ 62.250694, 25.211251 ], [ 62.16764, 25.220693 ], [ 62.100419, 25.20625 ], [ 62.060418, 25.178472 ], [ 62.052639, 25.152916 ], [ 62.094028, 25.100141 ], [ 61.910138, 25.109027 ], [ 61.864029, 25.090974 ], [ 61.854026, 25.036806 ], [ 61.779026, 25.014306 ], [ 61.732083, 25.022082 ], [ 61.735974, 25.07236 ], [ 61.769028, 25.09125 ], [ 61.757915, 25.125694 ], [ 61.744304, 25.127641 ], [ 61.76764, 25.131527 ], [ 61.779583, 25.142362 ], [ 61.781529, 25.169584 ], [ 61.77597, 25.142918 ], [ 61.744584, 25.135139 ], [ 61.74625, 25.145416 ], [ 61.730415, 25.156804 ], [ 61.744026, 25.141805 ], [ 61.669582, 25.165695 ], [ 61.671529, 25.178194 ], [ 61.66264, 25.190695 ], [ 61.682918, 25.17875 ], [ 61.700973, 25.192361 ], [ 61.702641, 25.195971 ], [ 61.696251, 25.210417 ], [ 61.728473, 25.235416 ], [ 61.733195, 25.242083 ], [ 61.734859, 25.254584 ], [ 61.694306, 25.209582 ], [ 61.700139, 25.193195 ], [ 61.682083, 25.180972 ], [ 61.678195, 25.190971 ], [ 61.66153, 25.191249 ], [ 61.667084, 25.171528 ], [ 61.576806, 25.184268 ], [ 61.610455, 25.194953 ], [ 61.655614, 25.297498 ], [ 61.680718, 25.654351 ], [ 61.706723, 25.686318 ], [ 61.689915, 25.717923 ], [ 61.689206, 25.799165 ], [ 61.768841, 25.801788 ], [ 61.780351, 25.818246 ], [ 61.847881, 26.228139 ], [ 62.061145, 26.315419 ], [ 62.121147, 26.316764 ], [ 62.132388, 26.38999 ], [ 62.282506, 26.358367 ], [ 62.291335, 26.386838 ], [ 62.256371, 26.445982 ], [ 62.282592, 26.447251 ], [ 62.308796, 26.476679 ], [ 62.295864, 26.498746 ], [ 62.30602, 26.524432 ], [ 62.403537, 26.539346 ], [ 62.434533, 26.568136 ], [ 62.608146, 26.585013 ], [ 62.778699, 26.65228 ], [ 62.985879, 26.653349 ], [ 63.051441, 26.637582 ], [ 63.169185, 26.647295 ], [ 63.199735, 26.737987 ], [ 63.192134, 26.843492 ], [ 63.281392, 26.874575 ], [ 63.25669, 26.928677 ], [ 63.255904, 27.082952 ], [ 63.317459, 27.138659 ], [ 63.299244, 27.17892 ], [ 63.184223, 27.241436 ], [ 63.058647, 27.233188 ], [ 62.951655, 27.19207 ], [ 62.878331, 27.217139 ], [ 62.821362, 27.21232 ], [ 62.782967, 27.234278 ], [ 62.781479, 27.251426 ], [ 62.832532, 27.304942 ], [ 62.8074, 27.340075 ], [ 62.855392, 27.465138 ], [ 62.819817, 27.805005 ], [ 62.768226, 28.032406 ], [ 62.796569, 28.208948 ], [ 62.791938, 28.277098 ], [ 62.592315, 28.255128 ], [ 62.43967, 28.40713 ], [ 62.296292, 28.463452 ], [ 62.043304, 28.507888 ], [ 61.804156, 28.640169 ], [ 61.681037, 28.770593 ], [ 61.504318, 29.007545 ], [ 61.503167, 29.056408 ], [ 61.47052, 29.113951 ], [ 61.415805, 29.135642 ], [ 61.428669, 29.19378 ], [ 61.383487, 29.221463 ], [ 61.357746, 29.282783 ], [ 61.372604, 29.348673 ], [ 61.192589, 29.502494 ], [ 60.899437, 29.837495 ], [ 61.923797, 29.543386 ], [ 62.396674, 29.388002 ], [ 62.481643, 29.376364 ], [ 63.116207, 29.442591 ], [ 63.299511, 29.441999 ], [ 63.374841, 29.46234 ], [ 63.664895, 29.476407 ], [ 63.969501, 29.425792 ], [ 64.094346, 29.363863 ], [ 64.139381, 29.361662 ], [ 64.173539, 29.396551 ], [ 64.164543, 29.434227 ], [ 64.188668, 29.461873 ], [ 64.242713, 29.47893 ], [ 64.270058, 29.506013 ], [ 64.327294, 29.505222 ], [ 64.446189, 29.537194 ], [ 64.446556, 29.559744 ], [ 64.487617, 29.571784 ], [ 64.631928, 29.581081 ], [ 64.917275, 29.556589 ], [ 64.961365, 29.567114 ], [ 65.054008, 29.534741 ], [ 65.786857, 29.725327 ], [ 65.786308, 29.700626 ], [ 65.875098, 29.743312 ], [ 66.266503, 29.841996 ], [ 66.289734, 29.863899 ], [ 66.274528, 29.878877 ], [ 66.356857, 29.958316 ], [ 66.361504, 29.972019 ], [ 66.238219, 30.066407 ], [ 66.258086, 30.116112 ], [ 66.303031, 30.147879 ], [ 66.296654, 30.176268 ], [ 66.349405, 30.296663 ], [ 66.353347, 30.387756 ], [ 66.380082, 30.43526 ], [ 66.356155, 30.45324 ], [ 66.376412, 30.47305 ], [ 66.364059, 30.495231 ], [ 66.299042, 30.523257 ], [ 66.294464, 30.538441 ], [ 66.321084, 30.64334 ], [ 66.385148, 30.758259 ], [ 66.359093, 30.786502 ], [ 66.389686, 30.838872 ], [ 66.428475, 30.854151 ], [ 66.482369, 30.91995 ], [ 66.45675, 30.921652 ], [ 66.456604, 30.935836 ], [ 66.593049, 30.96089 ], [ 66.632455, 30.993475 ], [ 66.654519, 31.037487 ], [ 66.696838, 31.062127 ], [ 66.740739, 31.191794 ], [ 66.731071, 31.212507 ], [ 66.792908, 31.213063 ], [ 66.834977, 31.264279 ], [ 66.902275, 31.296169 ], [ 67.013068, 31.311597 ], [ 67.006539, 31.293436 ], [ 67.042282, 31.287057 ], [ 67.014238, 31.234345 ], [ 67.061844, 31.203509 ], [ 67.159179, 31.210054 ], [ 67.304871, 31.18234 ], [ 67.49694, 31.224693 ], [ 67.506264, 31.228442 ], [ 67.471938, 31.238894 ], [ 67.762772, 31.327562 ], [ 67.789848, 31.356623 ], [ 67.771339, 31.399938 ], [ 67.740935, 31.414784 ], [ 67.633782, 31.400688 ], [ 67.597626, 31.426816 ], [ 67.595048, 31.470509 ], [ 67.553994, 31.528798 ], [ 67.594993, 31.533149 ], [ 67.608085, 31.503762 ], [ 67.729638, 31.504528 ], [ 67.861107, 31.60847 ], [ 67.96984, 31.62962 ], [ 68.053505, 31.676792 ], [ 68.121658, 31.747493 ], [ 68.108726, 31.753001 ], [ 68.168877, 31.834237 ], [ 68.17749, 31.814499 ], [ 68.259354, 31.801549 ], [ 68.250969, 31.785349 ], [ 68.286606, 31.756999 ], [ 68.421761, 31.757368 ], [ 68.537147, 31.714019 ], [ 68.563514, 31.719774 ], [ 68.582023, 31.750337 ], [ 68.463677, 31.748124 ], [ 68.433107, 31.763246 ], [ 68.570144, 31.827964 ], [ 68.632232, 31.778263 ], [ 68.701844, 31.769878 ], [ 68.716987, 31.696643 ], [ 68.773514, 31.660974 ], [ 68.804938, 31.609981 ], [ 68.900635, 31.601245 ], [ 68.949158, 31.645754 ], [ 69.021012, 31.626714 ], [ 69.031494, 31.650231 ], [ 69.117944, 31.703262 ], [ 69.197608, 31.848397 ], [ 69.26258, 31.8866 ], [ 69.277679, 31.911524 ], [ 69.318435, 31.929872 ], [ 69.555557, 31.955915 ], [ 69.670837, 32.053249 ], [ 69.763275, 32.074329 ], [ 69.886169, 32.072781 ], [ 69.896713, 32.059643 ], [ 69.80574, 32.045914 ], [ 69.784775, 32.012875 ], [ 69.791962, 31.97101 ], [ 69.8713, 31.9519 ], [ 69.869232, 31.892363 ], [ 69.883987, 31.887716 ], [ 69.852768, 31.868736 ], [ 69.86972, 31.864084 ], [ 69.903816, 31.89386 ], [ 69.946022, 31.890043 ], [ 70.028587, 31.864716 ], [ 70.051033, 31.837515 ], [ 70.102989, 31.845852 ], [ 70.186844, 31.818459 ], [ 70.189835, 31.765335 ], [ 70.220062, 31.722475 ], [ 70.307999, 31.478262 ], [ 70.371208, 31.254362 ], [ 70.371841, 31.191597 ], [ 70.227081, 31.154133 ], [ 70.228691, 31.081249 ], [ 70.216728, 31.066803 ], [ 70.243027, 31.047281 ], [ 70.22419, 30.89373 ], [ 70.260811, 30.888287 ], [ 70.258095, 30.843544 ], [ 70.201599, 30.84396 ], [ 70.178757, 30.774935 ], [ 70.12706, 30.773884 ], [ 70.118568, 30.738281 ], [ 70.070099, 30.717224 ], [ 70.07975, 30.634466 ], [ 70.06852, 30.593569 ], [ 69.979958, 30.432285 ], [ 70.001762, 30.420343 ], [ 70.000496, 30.362818 ], [ 69.93985, 30.332436 ], [ 69.920135, 30.298168 ], [ 69.920731, 30.282148 ], [ 70.016449, 30.291563 ], [ 70.048325, 30.271343 ], [ 69.940689, 30.251207 ], [ 70.044121, 30.24332 ], [ 69.999374, 30.149817 ], [ 69.952133, 30.099504 ], [ 69.965775, 30.077478 ], [ 69.890823, 29.996038 ], [ 69.805954, 29.808941 ], [ 69.693352, 29.735977 ], [ 69.604317, 29.704876 ], [ 69.580399, 29.656288 ], [ 69.55838, 29.651525 ], [ 69.565041, 29.543985 ], [ 69.527977, 29.431326 ], [ 69.582703, 29.438595 ], [ 69.627502, 29.40309 ], [ 69.636673, 29.386936 ], [ 69.613487, 29.333231 ], [ 69.637337, 29.313601 ], [ 69.643524, 29.273825 ], [ 69.714928, 29.308447 ], [ 69.73291, 29.311647 ], [ 69.736137, 29.29141 ], [ 69.672432, 29.105373 ], [ 69.609276, 29.087563 ], [ 69.541519, 28.982805 ], [ 69.452667, 28.924089 ], [ 69.433701, 28.86475 ], [ 69.481979, 28.849611 ], [ 69.486389, 28.817753 ], [ 69.372643, 28.61347 ], [ 69.261757, 28.569948 ], [ 69.29483, 28.496571 ], [ 69.348686, 28.456982 ], [ 68.465698, 28.439318 ], [ 68.40731, 28.396387 ], [ 68.367424, 28.315645 ], [ 68.197998, 28.251591 ], [ 68.086067, 28.155413 ], [ 67.993088, 28.103632 ], [ 67.923668, 28.011009 ], [ 67.759247, 27.943678 ], [ 67.424065, 27.891821 ], [ 67.370377, 27.743677 ], [ 67.291145, 27.690723 ], [ 67.277779, 27.626556 ], [ 67.212242, 27.554884 ], [ 67.197151, 27.408031 ], [ 67.144218, 27.300304 ], [ 67.168526, 27.24365 ], [ 67.186821, 27.093163 ], [ 67.164772, 26.930038 ], [ 67.179214, 26.771408 ], [ 67.159859, 26.752636 ], [ 67.154648, 26.707762 ], [ 67.20002, 26.511515 ], [ 67.276703, 26.39403 ], [ 67.374222, 26.196285 ], [ 67.44648, 26.112671 ], [ 67.453499, 25.99618 ], [ 67.438484, 25.946766 ], [ 67.46302, 25.840706 ], [ 67.386711, 25.763092 ], [ 67.335175, 25.630219 ], [ 67.218048, 25.518259 ], [ 67.196098, 25.47646 ], [ 67.169762, 25.468098 ], [ 67.072441, 25.286486 ], [ 67.092323, 25.253613 ], [ 67.035088, 25.215942 ], [ 67.019249, 25.138809 ], [ 66.975403, 25.073708 ], [ 66.920937, 25.03661 ], [ 66.741783, 24.975636 ], [ 66.687362, 24.907638 ], [ 66.677085, 24.936528 ], [ 66.701248, 24.954306 ], [ 66.710976, 25.017084 ], [ 66.701248, 25.086805 ], [ 66.734581, 25.12486 ], [ 66.746528, 25.185695 ], [ 66.684859, 25.25986 ], [ 66.54931, 25.362638 ], [ 66.548751, 25.384027 ], [ 66.574027, 25.384584 ], [ 66.568473, 25.407361 ], [ 66.555138, 25.399304 ], [ 66.562919, 25.419582 ], [ 66.569031, 25.412915 ], [ 66.585694, 25.430695 ], [ 66.559304, 25.44875 ], [ 66.56208, 25.480417 ], [ 66.537636, 25.500416 ], [ 66.542641, 25.511529 ], [ 66.470139, 25.520415 ], [ 66.472642, 25.538749 ], [ 66.465417, 25.528194 ], [ 66.471527, 25.517083 ], [ 66.437919, 25.511529 ], [ 66.425972, 25.520696 ], [ 66.436249, 25.546249 ], [ 66.394028, 25.535417 ], [ 66.409859, 25.559585 ], [ 66.365691, 25.593471 ], [ 66.290138, 25.593749 ], [ 66.258194, 25.573474 ], [ 66.263748, 25.560139 ], [ 66.245697, 25.549028 ], [ 66.345696, 25.548196 ], [ 66.353195, 25.52764 ], [ 66.384583, 25.52736 ], [ 66.430138, 25.483473 ], [ 66.485695, 25.498194 ], [ 66.524025, 25.490974 ], [ 66.525971, 25.44014 ], [ 66.488473, 25.437083 ], [ 66.523193, 25.420694 ], [ 66.521529, 25.404861 ], [ 66.371245, 25.456807 ], [ 66.285142, 25.468196 ], [ 65.967918, 25.415696 ], [ 65.826806, 25.41986 ], [ 65.772637, 25.383752 ], [ 65.640694, 25.354029 ], [ 65.460419, 25.391528 ], [ 65.417915, 25.373195 ] ], [ [ 66.990479, 26.596212 ], [ 67.103081, 26.656088 ], [ 67.089699, 26.687449 ], [ 67.033638, 26.704712 ], [ 66.992966, 26.682522 ], [ 66.952164, 26.710596 ], [ 66.91671, 26.694939 ], [ 66.990479, 26.596212 ] ], [ [ 65.628098, 25.53566 ], [ 65.588852, 25.472313 ], [ 65.595978, 25.455286 ], [ 65.782814, 25.544283 ], [ 65.84848, 25.553494 ], [ 65.933815, 25.503672 ], [ 65.990356, 25.528059 ], [ 66.028465, 25.499481 ], [ 66.058548, 25.517258 ], [ 66.098312, 25.488821 ], [ 66.107513, 25.502138 ], [ 66.255524, 25.832777 ], [ 66.275894, 25.908934 ], [ 66.218307, 26.197849 ], [ 66.172516, 26.280849 ], [ 66.180817, 26.360039 ], [ 66.244354, 26.411951 ], [ 66.248947, 26.507706 ], [ 66.204849, 26.506336 ], [ 66.186981, 26.550917 ], [ 66.142288, 26.561905 ], [ 66.080696, 26.538679 ], [ 66.04557, 26.367519 ], [ 66.062943, 26.230404 ], [ 66.077286, 26.193308 ], [ 66.147255, 26.129496 ], [ 66.161095, 26.043922 ], [ 66.122894, 26.009937 ], [ 66.101105, 26.025286 ], [ 66.096581, 25.951296 ], [ 66.045029, 25.883368 ], [ 66.032257, 25.823809 ], [ 65.971153, 25.791956 ], [ 65.90403, 25.683283 ], [ 65.841034, 25.637814 ], [ 65.727692, 25.602547 ], [ 65.597511, 25.608616 ], [ 65.612976, 25.599163 ], [ 65.628098, 25.53566 ] ] ], [ [ [ 66.597641, 24.897639 ], [ 66.610138, 24.895695 ], [ 66.608474, 24.890973 ], [ 66.597641, 24.897639 ] ] ], [ [ [ 66.568473, 25.425973 ], [ 66.570137, 25.420416 ], [ 66.567361, 25.41986 ], [ 66.568473, 25.425973 ] ] ], [ [ [ 66.556526, 25.432083 ], [ 66.564858, 25.430695 ], [ 66.568192, 25.425973 ], [ 66.556526, 25.432083 ] ] ], [ [ [ 66.368752, 25.585694 ], [ 66.37236, 25.585138 ], [ 66.372086, 25.584582 ], [ 66.368752, 25.585694 ] ] ], [ [ [ 66.363747, 25.546806 ], [ 66.363747, 25.544305 ], [ 66.360969, 25.544027 ], [ 66.363747, 25.546806 ] ] ], [ [ [ 66.263192, 25.570974 ], [ 66.265977, 25.567361 ], [ 66.263474, 25.566529 ], [ 66.263192, 25.570974 ] ] ], [ [ [ 64.13903, 25.400139 ], [ 64.138748, 25.397082 ], [ 64.136254, 25.400139 ], [ 64.13903, 25.400139 ] ] ], [ [ [ 64.099861, 25.325971 ], [ 64.100693, 25.325139 ], [ 64.096803, 25.322917 ], [ 64.099861, 25.325971 ] ] ], [ [ [ 64.092087, 25.322083 ], [ 64.095695, 25.322917 ], [ 64.095971, 25.322361 ], [ 64.092087, 25.322083 ] ] ], [ [ [ 64.083748, 25.327917 ], [ 64.085418, 25.325971 ], [ 64.087638, 25.322083 ], [ 64.083748, 25.327917 ] ] ], [ [ [ 63.827641, 25.121806 ], [ 63.866528, 25.12486 ], [ 63.825973, 25.11764 ], [ 63.827641, 25.121806 ] ] ], [ [ [ 61.743194, 25.139861 ], [ 61.739859, 25.133195 ], [ 61.740418, 25.138471 ], [ 61.743194, 25.139861 ] ] ] ] } },
{ "type": "Feature", "properties": { "province": "GB" }, "geometry": { "type": "Polygon", "coordinates": [ [ [ 74.728888, 35.648593 ], [ 74.899361, 35.509006 ], [ 74.90889, 35.433201 ], [ 74.899926, 35.398513 ], [ 74.85559, 35.344894 ], [ 74.706863, 35.270752 ], [ 74.649299, 35.139911 ], [ 74.638596, 35.154969 ], [ 74.488946, 35.078937 ], [ 74.461236, 35.08025 ], [ 74.421059, 35.115002 ], [ 74.355659, 35.132583 ], [ 74.226745, 35.142769 ], [ 74.126488, 35.124629 ], [ 74.080276, 35.151099 ], [ 74.031662, 35.143325 ], [ 74.008331, 35.169442 ], [ 73.915542, 35.209434 ], [ 73.849716, 35.207772 ], [ 73.799988, 35.23777 ], [ 73.730545, 35.21971 ], [ 73.698867, 35.301932 ], [ 73.700547, 35.389718 ], [ 73.714997, 35.420548 ], [ 73.760819, 35.446099 ], [ 73.806777, 35.504112 ], [ 73.780273, 35.522491 ], [ 73.414429, 35.573325 ], [ 73.281097, 35.613885 ], [ 73.136108, 35.708886 ], [ 73.111648, 35.759995 ], [ 73.124144, 35.8386 ], [ 73.081666, 35.863609 ], [ 72.976379, 35.833878 ], [ 72.811096, 35.857216 ], [ 72.676926, 35.817498 ], [ 72.574998, 35.845825 ], [ 72.512771, 35.900269 ], [ 72.566941, 36.007507 ], [ 72.519134, 36.08583 ], [ 72.543854, 36.144713 ], [ 72.540253, 36.202476 ], [ 72.583328, 36.25885 ], [ 72.67691, 36.264398 ], [ 72.709137, 36.303262 ], [ 72.846635, 36.372657 ], [ 72.875245, 36.452896 ], [ 72.959702, 36.471191 ], [ 72.964142, 36.498406 ], [ 73.035522, 36.537529 ], [ 73.073028, 36.605279 ], [ 73.048019, 36.666649 ], [ 73.059966, 36.690797 ], [ 73.157196, 36.722985 ], [ 73.247742, 36.711295 ], [ 73.407211, 36.751533 ], [ 73.483033, 36.726531 ], [ 73.563019, 36.729034 ], [ 73.586091, 36.707375 ], [ 73.660247, 36.70266 ], [ 73.70108, 36.720161 ], [ 73.767761, 36.721291 ], [ 73.843048, 36.705741 ], [ 73.863038, 36.748254 ], [ 73.840272, 36.791313 ], [ 73.797485, 36.803254 ], [ 73.780807, 36.828812 ], [ 73.696351, 36.846856 ], [ 73.641891, 36.90406 ], [ 73.840087, 36.908848 ], [ 74.02774, 36.846596 ], [ 74.119666, 36.841716 ], [ 74.152039, 36.909847 ], [ 74.252319, 36.900397 ], [ 74.420546, 36.996116 ], [ 74.517357, 36.998908 ], [ 74.536591, 36.965173 ], [ 74.558425, 36.960282 ], [ 74.571555, 37.03444 ], [ 74.611312, 37.04995 ], [ 74.612213, 37.082844 ], [ 74.644043, 37.093818 ], [ 74.683196, 37.095031 ], [ 74.705117, 37.047848 ], [ 74.741996, 37.022058 ], [ 74.831748, 37.062385 ], [ 74.851287, 36.987969 ], [ 74.922417, 36.934559 ], [ 75.025276, 37.011421 ], [ 75.146866, 37.01989 ], [ 75.166223, 36.98883 ], [ 75.23732, 36.957519 ], [ 75.298827, 36.965492 ], [ 75.401862, 36.94281 ], [ 75.410117, 36.934669 ], [ 75.388894, 36.910111 ], [ 75.417342, 36.877572 ], [ 75.422958, 36.771722 ], [ 75.454499, 36.721615 ], [ 75.531099, 36.722759 ], [ 75.527046, 36.75428 ], [ 75.546218, 36.766553 ], [ 75.652451, 36.768841 ], [ 75.789047, 36.713458 ], [ 75.918868, 36.620478 ], [ 75.932801, 36.549148 ], [ 75.982201, 36.498153 ], [ 76.025436, 36.409173 ], [ 75.983117, 36.337544 ], [ 75.988259, 36.293429 ], [ 76.009781, 36.28896 ], [ 76.055573, 36.227309 ], [ 76.000901, 36.21606 ], [ 76.01918, 36.166671 ], [ 75.965821, 36.159858 ], [ 75.936798, 36.133949 ], [ 75.940399, 36.089852 ], [ 75.872711, 36.080777 ], [ 75.796066, 36.167603 ], [ 75.766816, 36.179074 ], [ 75.689437, 36.170682 ], [ 75.604943, 36.191285 ], [ 75.492524, 36.287018 ], [ 75.42965, 36.295405 ], [ 75.389213, 36.27536 ], [ 75.215851, 36.093059 ], [ 75.145257, 36.142029 ], [ 75.018051, 36.107213 ], [ 75.009666, 36.091122 ], [ 75.039551, 36.0 ], [ 75.068382, 35.964637 ], [ 75.073715, 35.920722 ], [ 74.964774, 35.829457 ], [ 74.953711, 35.791543 ], [ 74.90004, 35.834065 ], [ 74.876442, 35.924679 ], [ 74.829674, 35.938297 ], [ 74.792068, 35.922997 ], [ 74.725173, 35.720894 ], [ 74.728888, 35.648593 ] ] ] } },
{ "type": "Feature", "properties": { "province": "ICT" }, "geometry": { "type": "Polygon", "coordinates": [ [ [ 73.2313, 33.770649 ], [ 73.265587, 33.709087 ], [ 73.333801, 33.703384 ], [ 73.28019, 33.657345 ], [ 73.249855, 33.651554 ], [ 73.245102, 33.594078 ], [ 73.163223, 33.494183 ], [ 73.107185, 33.509674 ], [ 73.054108, 33.546932 ], [ 73.103989, 33.574001 ], [ 73.105881, 33.595783 ], [ 73.05748, 33.664063 ], [ 72.948586, 33.629791 ], [ 72.858459, 33.576202 ], [ 72.777901, 33.705311 ], [ 72.856102, 33.726833 ], [ 72.880089, 33.754444 ], [ 72.960533, 33.736019 ], [ 73.145164, 33.803329 ], [ 73.2313, 33.770649 ] ] ] } },
{ "type": "Feature", "properties": { "province": "KP" }, "geometry": { "type": "Polygon", "coordinates": [ [ [ 71.361885, 32.508018 ], [ 71.335442, 32.429249 ], [ 71.348495, 32.419319 ], [ 71.345726, 32.370129 ], [ 71.27462, 32.34346 ], [ 71.187622, 32.247875 ], [ 71.163773, 32.156452 ], [ 71.118019, 32.13913 ], [ 71.100456, 32.045383 ], [ 71.067223, 32.019283 ], [ 71.036629, 31.867188 ], [ 70.861, 31.6551 ], [ 70.864769, 31.578529 ], [ 70.849236, 31.540876 ], [ 70.877373, 31.507679 ], [ 70.849792, 31.495583 ], [ 70.860947, 31.44083 ], [ 70.809311, 31.3895 ], [ 70.777054, 31.306379 ], [ 70.752266, 31.298183 ], [ 70.682266, 31.318184 ], [ 70.609451, 31.308994 ], [ 70.535561, 31.325098 ], [ 70.489098, 31.293522 ], [ 70.430573, 31.286125 ], [ 70.388618, 31.242121 ], [ 70.369736, 31.245861 ], [ 70.264244, 31.60692 ], [ 70.189835, 31.765335 ], [ 70.186844, 31.818459 ], [ 70.102989, 31.845852 ], [ 70.051033, 31.837515 ], [ 70.028587, 31.864716 ], [ 69.946022, 31.890043 ], [ 69.903816, 31.89386 ], [ 69.86972, 31.864084 ], [ 69.852768, 31.868736 ], [ 69.883987, 31.887716 ], [ 69.869232, 31.892363 ], [ 69.868355, 31.958118 ], [ 69.784134, 31.981842 ], [ 69.80574, 32.045914 ], [ 69.896713, 32.059643 ], [ 69.886169, 32.072781 ], [ 69.763275, 32.074329 ], [ 69.670837, 32.053249 ], [ 69.555557, 31.955915 ], [ 69.502151, 31.940685 ], [ 69.318435, 31.929872 ], [ 69.272843, 32.151005 ], [ 69.280838, 32.356384 ], [ 69.238776, 32.444307 ], [ 69.285209, 32.532981 ], [ 69.385238, 32.56655 ], [ 69.46489, 32.661861 ], [ 69.451165, 32.730573 ], [ 69.403022, 32.769086 ], [ 69.448854, 32.795136 ], [ 69.475478, 32.84344 ], [ 69.534576, 32.866405 ], [ 69.492034, 32.942687 ], [ 69.499626, 33.002469 ], [ 69.590996, 33.08476 ], [ 69.580054, 33.097568 ], [ 69.704591, 33.090501 ], [ 69.78653, 33.127544 ], [ 69.856452, 33.096333 ], [ 69.916694, 33.103984 ], [ 69.945901, 33.128736 ], [ 70.023079, 33.14327 ], [ 70.067254, 33.213462 ], [ 70.093003, 33.193267 ], [ 70.15702, 33.19806 ], [ 70.183991, 33.218964 ], [ 70.17028, 33.238266 ], [ 70.23346, 33.268807 ], [ 70.290465, 33.326745 ], [ 70.332787, 33.326733 ], [ 70.32692, 33.339585 ], [ 70.341988, 33.347683 ], [ 70.327743, 33.371124 ], [ 70.341698, 33.393138 ], [ 70.31408, 33.433789 ], [ 70.229104, 33.478517 ], [ 70.195886, 33.527308 ], [ 70.218766, 33.642364 ], [ 70.165238, 33.658778 ], [ 70.154504, 33.726464 ], [ 70.004165, 33.740234 ], [ 69.973214, 33.766793 ], [ 69.971122, 33.822552 ], [ 69.911231, 33.906117 ], [ 69.871583, 33.933963 ], [ 69.885192, 33.969939 ], [ 69.910347, 33.982541 ], [ 69.912017, 34.02246 ], [ 70.010337, 34.030113 ], [ 70.075142, 33.999028 ], [ 70.169067, 33.984086 ], [ 70.169038, 33.999374 ], [ 70.238822, 33.973144 ], [ 70.426309, 33.960381 ], [ 70.435722, 33.937008 ], [ 70.467057, 33.928352 ], [ 70.59388, 33.964321 ], [ 70.767937, 33.954856 ], [ 70.82428, 33.981827 ], [ 70.884948, 33.976756 ], [ 70.917939, 34.009811 ], [ 71.065278, 34.051792 ], [ 71.072754, 34.105689 ], [ 71.141547, 34.156838 ], [ 71.137467, 34.198457 ], [ 71.151794, 34.224109 ], [ 71.126525, 34.237125 ], [ 71.122056, 34.267207 ], [ 71.171089, 34.338925 ], [ 71.169471, 34.36361 ], [ 71.07602, 34.395771 ], [ 71.006814, 34.461116 ], [ 70.995559, 34.554772 ], [ 71.028046, 34.536927 ], [ 71.098068, 34.580524 ], [ 71.128524, 34.626226 ], [ 71.106843, 34.655255 ], [ 71.112358, 34.682933 ], [ 71.242485, 34.74516 ], [ 71.231751, 34.76389 ], [ 71.246308, 34.790893 ], [ 71.279458, 34.805015 ], [ 71.309861, 34.878827 ], [ 71.328698, 34.872033 ], [ 71.360725, 34.897365 ], [ 71.524948, 34.959114 ], [ 71.560967, 35.021569 ], [ 71.588066, 35.027322 ], [ 71.553086, 35.043702 ], [ 71.535767, 35.090419 ], [ 71.628831, 35.148879 ], [ 71.686096, 35.195415 ], [ 71.690292, 35.215469 ], [ 71.5978, 35.273753 ], [ 71.566873, 35.311753 ], [ 71.671241, 35.431731 ], [ 71.620232, 35.511296 ], [ 71.645737, 35.564015 ], [ 71.617492, 35.588825 ], [ 71.52536, 35.617898 ], [ 71.567543, 35.676641 ], [ 71.57335, 35.717221 ], [ 71.495125, 35.767956 ], [ 71.51732, 35.802727 ], [ 71.496627, 35.812974 ], [ 71.480279, 35.857697 ], [ 71.405503, 35.910908 ], [ 71.392457, 35.960231 ], [ 71.371833, 35.973892 ], [ 71.336999, 35.968637 ], [ 71.233535, 36.038756 ], [ 71.228966, 36.067205 ], [ 71.264313, 36.09246 ], [ 71.271125, 36.118469 ], [ 71.445739, 36.212807 ], [ 71.464822, 36.260696 ], [ 71.618415, 36.323441 ], [ 71.610413, 36.349273 ], [ 71.574868, 36.372666 ], [ 71.628334, 36.406365 ], [ 71.650856, 36.436085 ], [ 71.65487, 36.477036 ], [ 71.795791, 36.400597 ], [ 71.857269, 36.399425 ], [ 71.861679, 36.429416 ], [ 71.818619, 36.442143 ], [ 71.83207, 36.50546 ], [ 71.909126, 36.505298 ], [ 71.935302, 36.560879 ], [ 72.012947, 36.56773 ], [ 72.059159, 36.595645 ], [ 72.096765, 36.597325 ], [ 72.102914, 36.648544 ], [ 72.212944, 36.664691 ], [ 72.196899, 36.693557 ], [ 72.241364, 36.753482 ], [ 72.30255, 36.74501 ], [ 72.411162, 36.776668 ], [ 72.495224, 36.777556 ], [ 72.545403, 36.822861 ], [ 72.6316, 36.848426 ], [ 72.882638, 36.841081 ], [ 73.095368, 36.873677 ], [ 73.188202, 36.876943 ], [ 73.321442, 36.851551 ], [ 73.445733, 36.882652 ], [ 73.660995, 36.889804 ], [ 73.696351, 36.846856 ], [ 73.780807, 36.828812 ], [ 73.794144, 36.805747 ], [ 73.833054, 36.796868 ], [ 73.853591, 36.773812 ], [ 73.862489, 36.733252 ], [ 73.847763, 36.707687 ], [ 73.767761, 36.721291 ], [ 73.70108, 36.720161 ], [ 73.660247, 36.70266 ], [ 73.586091, 36.707375 ], [ 73.563019, 36.729034 ], [ 73.483033, 36.726531 ], [ 73.407211, 36.751533 ], [ 73.247742, 36.711295 ], [ 73.157196, 36.722985 ], [ 73.05275, 36.685798 ], [ 73.073028, 36.605279 ], [ 73.035522, 36.537529 ], [ 72.964142, 36.498406 ], [ 72.959702, 36.471191 ], [ 72.875245, 36.452896 ], [ 72.850799, 36.375708 ], [ 72.709137, 36.303262 ], [ 72.67691, 36.264398 ], [ 72.596374, 36.264405 ], [ 72.552765, 36.231355 ], [ 72.543854, 36.144713 ], [ 72.518585, 36.090554 ], [ 72.566941, 36.007507 ], [ 72.512771, 35.900269 ], [ 72.574998, 35.845825 ], [ 72.676926, 35.817498 ], [ 72.811096, 35.857216 ], [ 72.976379, 35.833878 ], [ 73.081666, 35.863609 ], [ 73.124144, 35.8386 ], [ 73.111648, 35.759995 ], [ 73.136108, 35.708886 ], [ 73.281097, 35.613885 ], [ 73.414429, 35.573325 ], [ 73.780273, 35.522491 ], [ 73.806777, 35.504112 ], [ 73.760819, 35.446099 ], [ 73.714997, 35.420548 ], [ 73.700547, 35.389718 ], [ 73.698867, 35.301932 ], [ 73.721374, 35.229431 ], [ 73.730545, 35.21971 ], [ 73.786653, 35.23999 ], [ 73.849716, 35.207772 ], [ 73.915542, 35.209434 ], [ 74.008331, 35.169442 ], [ 74.031662, 35.143325 ], [ 74.080276, 35.151099 ], [ 74.124421, 35.127487 ], [ 74.061371, 35.080551 ], [ 74.087205, 35.024995 ], [ 74.055816, 34.996102 ], [ 74.05165, 34.955552 ], [ 73.975541, 34.861938 ], [ 73.907761, 34.82666 ], [ 73.833879, 34.826942 ], [ 73.732209, 34.781104 ], [ 73.703599, 34.724709 ], [ 73.663604, 34.694436 ], [ 73.674423, 34.645828 ], [ 73.641098, 34.566941 ], [ 73.581665, 34.587768 ], [ 73.464707, 34.571937 ], [ 73.442749, 34.554994 ], [ 73.399154, 34.357497 ], [ 73.478218, 34.221958 ], [ 73.513138, 34.041603 ], [ 73.437553, 33.983913 ], [ 73.379562, 33.975594 ], [ 73.375244, 33.934685 ], [ 73.349541, 33.919136 ], [ 73.334015, 33.881714 ], [ 73.236305, 33.832142 ], [ 72.933067, 33.733578 ], [ 72.931862, 33.747837 ], [ 72.832008, 33.772072 ], [ 72.870491, 33.801605 ], [ 72.827118, 33.822666 ], [ 72.847694, 33.869499 ], [ 72.78656, 33.896828 ], [ 72.794632, 33.929676 ], [ 72.74025, 33.924793 ], [ 72.669266, 33.861572 ], [ 72.622818, 33.877815 ], [ 72.619148, 33.892311 ], [ 72.656052, 33.927826 ], [ 72.550873, 33.942425 ], [ 72.526772, 33.992619 ], [ 72.416763, 33.993896 ], [ 72.371414, 33.940479 ], [ 72.255974, 33.899929 ], [ 72.235664, 33.875626 ], [ 72.244766, 33.833065 ], [ 72.167076, 33.759747 ], [ 72.093964, 33.771709 ], [ 72.043816, 33.730492 ], [ 71.991936, 33.634792 ], [ 71.960732, 33.501778 ], [ 71.877701, 33.439976 ], [ 71.872368, 33.406658 ], [ 71.73735, 33.357437 ], [ 71.710632, 33.255676 ], [ 71.756424, 33.206558 ], [ 71.761742, 33.168839 ], [ 71.718544, 33.111961 ], [ 71.710136, 33.050606 ], [ 71.632362, 33.086033 ], [ 71.604385, 33.179695 ], [ 71.570824, 33.219116 ], [ 71.534729, 33.205898 ], [ 71.529366, 33.216721 ], [ 71.408363, 33.215965 ], [ 71.461746, 33.066128 ], [ 71.50589, 33.040462 ], [ 71.39003, 32.987274 ], [ 71.335693, 32.986069 ], [ 71.31514, 33.011425 ], [ 71.2808, 33.007629 ], [ 71.191093, 32.961941 ], [ 71.157402, 32.896759 ], [ 71.147827, 32.805977 ], [ 71.120567, 32.774342 ], [ 71.171295, 32.585426 ], [ 71.262161, 32.589729 ], [ 71.270386, 32.565792 ], [ 71.242874, 32.513004 ], [ 71.250359, 32.496197 ], [ 71.269516, 32.491997 ], [ 71.336891, 32.528561 ], [ 71.345963, 32.506691 ], [ 71.361885, 32.508018 ] ] ] } },
{ "type": "Feature", "properties": { "province": "Punjab" }, "geometry": { "type": "Polygon", "coordinates": [ [ [ 72.711297, 28.93503 ], [ 72.402732, 28.777879 ], [ 72.326287, 28.698893 ], [ 72.184425, 28.358005 ], [ 71.995881, 28.206956 ], [ 71.933257, 28.12686 ], [ 71.897377, 27.95742 ], [ 71.658286, 27.86893 ], [ 71.409728, 27.86579 ], [ 71.272957, 27.841929 ], [ 70.884171, 27.698401 ], [ 70.757668, 27.717208 ], [ 70.678413, 27.839053 ], [ 70.660697, 27.930501 ], [ 70.530335, 28.032488 ], [ 70.366165, 28.008249 ], [ 70.180784, 27.855145 ], [ 70.048462, 27.901028 ], [ 69.964386, 27.949362 ], [ 69.835838, 28.087744 ], [ 69.805168, 28.164848 ], [ 69.784607, 28.354553 ], [ 69.719551, 28.394409 ], [ 69.691681, 28.433302 ], [ 69.571358, 28.44544 ], [ 69.591614, 28.478542 ], [ 69.448883, 28.494562 ], [ 69.402237, 28.479982 ], [ 69.390137, 28.456011 ], [ 69.348686, 28.456982 ], [ 69.29483, 28.496571 ], [ 69.261757, 28.569948 ], [ 69.372643, 28.61347 ], [ 69.486389, 28.817753 ], [ 69.481979, 28.849611 ], [ 69.433701, 28.86475 ], [ 69.452667, 28.924089 ], [ 69.541519, 28.982805 ], [ 69.609276, 29.087563 ], [ 69.672432, 29.105373 ], [ 69.669441, 29.123056 ], [ 69.702744, 29.172426 ], [ 69.73291, 29.311647 ], [ 69.643524, 29.273825 ], [ 69.637337, 29.313601 ], [ 69.613487, 29.333231 ], [ 69.636673, 29.386936 ], [ 69.627502, 29.40309 ], [ 69.582703, 29.438595 ], [ 69.527977, 29.431326 ], [ 69.565041, 29.543985 ], [ 69.55838, 29.651525 ], [ 69.580399, 29.656288 ], [ 69.604317, 29.704876 ], [ 69.693352, 29.735977 ], [ 69.805954, 29.808941 ], [ 69.890823, 29.996038 ], [ 69.965775, 30.077478 ], [ 69.952133, 30.099504 ], [ 69.999374, 30.149817 ], [ 70.041405, 30.232468 ], [ 70.044121, 30.24332 ], [ 69.938194, 30.244749 ], [ 70.048325, 30.271343 ], [ 70.016449, 30.291563 ], [ 69.920731, 30.282148 ], [ 69.920135, 30.298168 ], [ 69.93985, 30.332436 ], [ 70.000496, 30.362818 ], [ 70.001762, 30.420343 ], [ 69.979958, 30.432285 ], [ 70.06852, 30.593569 ], [ 70.07975, 30.634466 ], [ 70.070099, 30.717224 ], [ 70.118568, 30.738281 ], [ 70.12706, 30.773884 ], [ 70.178757, 30.774935 ], [ 70.201599, 30.84396 ], [ 70.258095, 30.843544 ], [ 70.260811, 30.888287 ], [ 70.22419, 30.89373 ], [ 70.243027, 31.047281 ], [ 70.216728, 31.066803 ], [ 70.228691, 31.081249 ], [ 70.227081, 31.154133 ], [ 70.371841, 31.191597 ], [ 70.369736, 31.245861 ], [ 70.39962, 31.244383 ], [ 70.430573, 31.286125 ], [ 70.489098, 31.293522 ], [ 70.535561, 31.325098 ], [ 70.772049, 31.300879 ], [ 70.809311, 31.3895 ], [ 70.860947, 31.44083 ], [ 70.847237, 31.488235 ], [ 70.877373, 31.507679 ], [ 70.849236, 31.540876 ], [ 70.864769, 31.578529 ], [ 70.861, 31.6551 ], [ 71.036629, 31.867188 ], [ 71.041893, 31.94166 ], [ 71.061325, 31.960678 ], [ 71.067223, 32.019283 ], [ 71.100456, 32.045383 ], [ 71.118019, 32.13913 ], [ 71.163773, 32.156452 ], [ 71.187622, 32.247875 ], [ 71.27462, 32.34346 ], [ 71.345726, 32.370129 ], [ 71.348495, 32.419319 ], [ 71.335442, 32.429249 ], [ 71.361885, 32.508018 ], [ 71.322342, 32.528149 ], [ 71.269516, 32.491997 ], [ 71.250359, 32.496197 ], [ 71.242874, 32.513004 ], [ 71.270386, 32.565792 ], [ 71.262161, 32.589729 ], [ 71.171295, 32.585426 ], [ 71.141586, 32.671734 ], [ 71.120567, 32.774342 ], [ 71.147827, 32.805977 ], [ 71.157402, 32.896759 ], [ 71.191093, 32.961941 ], [ 71.2808, 33.007629 ], [ 71.31514, 33.011425 ], [ 71.335693, 32.986069 ], [ 71.39003, 32.987274 ], [ 71.50589, 33.040462 ], [ 71.461746, 33.066128 ], [ 71.408363, 33.215965 ], [ 71.529366, 33.216721 ], [ 71.534729, 33.205898 ], [ 71.570824, 33.219116 ], [ 71.604385, 33.179695 ], [ 71.632362, 33.086033 ], [ 71.710136, 33.050606 ], [ 71.718544, 33.111961 ], [ 71.761742, 33.168839 ], [ 71.756424, 33.206558 ], [ 71.710632, 33.255676 ], [ 71.73735, 33.357437 ], [ 71.872368, 33.406658 ], [ 71.877701, 33.439976 ], [ 71.960732, 33.501778 ], [ 71.991936, 33.634792 ], [ 72.043816, 33.730492 ], [ 72.093964, 33.771709 ], [ 72.167076, 33.759747 ], [ 72.244766, 33.833065 ], [ 72.235664, 33.875626 ], [ 72.255974, 33.899929 ], [ 72.371414, 33.940479 ], [ 72.416763, 33.993896 ], [ 72.526772, 33.992619 ], [ 72.550873, 33.942425 ], [ 72.656052, 33.927826 ], [ 72.619148, 33.892311 ], [ 72.622818, 33.877815 ], [ 72.669266, 33.861572 ], [ 72.74025, 33.924793 ], [ 72.794632, 33.929676 ], [ 72.78656, 33.896828 ], [ 72.847694, 33.869499 ], [ 72.827118, 33.822666 ], [ 72.870491, 33.801605 ], [ 72.832008, 33.772072 ], [ 72.880089, 33.754444 ], [ 72.856102, 33.726833 ], [ 72.777901, 33.705311 ], [ 72.827827, 33.609859 ], [ 72.858459, 33.576202 ], [ 72.948586, 33.629791 ], [ 73.05748, 33.664063 ], [ 73.105881, 33.595783 ], [ 73.103989, 33.574001 ], [ 73.054108, 33.546932 ], [ 73.107185, 33.509674 ], [ 73.163223, 33.494183 ], [ 73.245102, 33.594078 ], [ 73.249855, 33.651554 ], [ 73.28019, 33.657345 ], [ 73.333801, 33.703384 ], [ 73.265587, 33.709087 ], [ 73.244858, 33.763012 ], [ 73.145164, 33.803329 ], [ 73.334015, 33.881714 ], [ 73.349541, 33.919136 ], [ 73.375244, 33.934685 ], [ 73.379562, 33.975594 ], [ 73.437553, 33.983913 ], [ 73.468147, 34.018757 ], [ 73.501961, 34.024395 ], [ 73.491631, 33.983322 ], [ 73.540993, 33.906906 ], [ 73.524254, 33.81226 ], [ 73.562569, 33.751102 ], [ 73.536728, 33.657295 ], [ 73.596603, 33.544052 ], [ 73.575264, 33.508419 ], [ 73.582993, 33.463974 ], [ 73.538994, 33.394585 ], [ 73.605827, 33.218117 ], [ 73.581268, 33.120113 ], [ 73.596741, 33.094349 ], [ 73.679611, 33.08308 ], [ 73.743797, 33.034973 ], [ 73.762054, 32.97575 ], [ 73.78817, 33.007366 ], [ 73.82016, 33.017311 ], [ 73.891914, 32.995541 ], [ 73.926003, 33.001507 ], [ 73.963821, 32.943371 ], [ 74.006462, 32.948277 ], [ 74.030571, 32.927944 ], [ 74.144028, 32.900188 ], [ 74.183487, 32.865696 ], [ 74.253395, 32.846275 ], [ 74.311539, 32.785965 ], [ 74.388039, 32.803448 ], [ 74.471956, 32.778362 ], [ 74.531531, 32.740731 ], [ 74.614234, 32.757733 ], [ 74.64154, 32.791888 ], [ 74.641999, 32.822898 ], [ 74.697021, 32.839714 ], [ 74.65014, 32.718411 ], [ 74.676208, 32.658001 ], [ 74.642213, 32.61105 ], [ 74.652398, 32.560162 ], [ 74.680511, 32.538189 ], [ 74.686738, 32.493069 ], [ 74.746987, 32.479152 ], [ 74.835326, 32.496212 ], [ 74.973107, 32.44793 ], [ 75.030167, 32.49176 ], [ 75.082626, 32.480046 ], [ 75.127931, 32.421169 ], [ 75.188531, 32.42448 ], [ 75.195473, 32.40531 ], [ 75.231529, 32.399189 ], [ 75.330421, 32.33171 ], [ 75.33992, 32.288566 ], [ 75.366996, 32.268749 ], [ 75.363151, 32.234681 ], [ 75.314202, 32.214909 ], [ 75.333283, 32.204719 ], [ 75.317193, 32.192806 ], [ 75.314232, 32.159187 ], [ 75.23343, 32.084363 ], [ 75.222709, 32.11253 ], [ 75.19532, 32.116649 ], [ 75.164452, 32.067971 ], [ 75.116257, 32.082811 ], [ 75.092162, 32.05949 ], [ 75.004928, 32.028756 ], [ 74.914262, 32.06522 ], [ 74.862252, 32.045109 ], [ 74.865083, 32.023911 ], [ 74.818351, 31.99745 ], [ 74.809144, 31.95514 ], [ 74.747725, 31.95228 ], [ 74.735917, 31.93739 ], [ 74.709199, 31.957948 ], [ 74.703262, 31.924898 ], [ 74.659867, 31.91823 ], [ 74.622619, 31.881349 ], [ 74.599105, 31.885111 ], [ 74.580466, 31.84354 ], [ 74.55574, 31.82767 ], [ 74.551795, 31.75322 ], [ 74.518043, 31.745202 ], [ 74.51728, 31.722912 ], [ 74.600906, 31.567838 ], [ 74.60385, 31.534111 ], [ 74.566201, 31.50084 ], [ 74.626457, 31.486691 ], [ 74.642067, 31.459961 ], [ 74.594574, 31.397094 ], [ 74.551872, 31.298455 ], [ 74.530234, 31.298676 ], [ 74.511117, 31.272332 ], [ 74.522203, 31.247539 ], [ 74.501267, 31.181579 ], [ 74.504592, 31.13851 ], [ 74.542366, 31.122829 ], [ 74.546403, 31.08857 ], [ 74.565818, 31.084342 ], [ 74.596489, 31.09094 ], [ 74.59501, 31.13495 ], [ 74.625153, 31.137261 ], [ 74.631202, 31.12128 ], [ 74.676553, 31.131041 ], [ 74.694421, 31.098151 ], [ 74.683196, 31.07218 ], [ 74.600181, 31.043547 ], [ 74.558395, 31.067526 ], [ 74.531791, 31.01269 ], [ 74.538116, 30.993541 ], [ 74.470589, 30.965988 ], [ 74.416107, 30.90604 ], [ 74.365523, 30.885407 ], [ 74.363007, 30.845807 ], [ 74.316146, 30.847581 ], [ 74.285758, 30.799591 ], [ 74.29738, 30.78273 ], [ 74.262208, 30.76803 ], [ 74.281806, 30.730235 ], [ 74.232155, 30.719621 ], [ 74.150931, 30.632622 ], [ 74.118369, 30.632161 ], [ 74.108918, 30.60568 ], [ 74.090995, 30.612791 ], [ 74.092629, 30.575349 ], [ 74.067903, 30.554871 ], [ 74.084397, 30.545041 ], [ 74.077614, 30.529361 ], [ 74.066512, 30.520187 ], [ 74.034012, 30.53626 ], [ 73.98365, 30.50053 ], [ 73.962677, 30.457607 ], [ 73.935286, 30.462958 ], [ 73.927857, 30.420913 ], [ 73.90342, 30.416797 ], [ 73.871254, 30.368572 ], [ 73.957848, 30.26169 ], [ 73.957962, 30.185747 ], [ 73.787216, 30.0664 ], [ 73.611184, 30.02241 ], [ 73.391373, 29.93787 ], [ 73.271317, 29.556961 ], [ 73.089271, 29.249091 ], [ 73.000029, 29.147366 ], [ 72.94172, 29.027201 ], [ 72.711297, 28.93503 ] ] ] } },
{ "type": "Feature", "properties": { "province": "Sindh" }, "geometry": { "type": "MultiPolygon", "coordinates": [ [ [ [ 67.199859, 24.80486 ], [ 67.171523, 24.801806 ], [ 67.190415, 24.802084 ], [ 67.182358, 24.789027 ], [ 67.150138, 24.793471 ], [ 67.12236, 24.777082 ], [ 67.087913, 24.793193 ], [ 67.082085, 24.812915 ], [ 67.081802, 24.792359 ], [ 67.104858, 24.761807 ], [ 67.081253, 24.747638 ], [ 67.024865, 24.805973 ], [ 66.986252, 24.814307 ], [ 66.98375, 24.797916 ], [ 66.973197, 24.822081 ], [ 66.989304, 24.844305 ], [ 66.968475, 24.825972 ], [ 66.981803, 24.85486 ], [ 66.969024, 24.852362 ], [ 66.966804, 24.870417 ], [ 66.91597, 24.859029 ], [ 66.914024, 24.841807 ], [ 66.922363, 24.833751 ], [ 66.939582, 24.839305 ], [ 66.962914, 24.825972 ], [ 66.953752, 24.819584 ], [ 66.96514, 24.819862 ], [ 66.959862, 24.812085 ], [ 66.967919, 24.810417 ], [ 66.98153, 24.791249 ], [ 66.982086, 24.784585 ], [ 66.91236, 24.840139 ], [ 66.854026, 24.861251 ], [ 66.82264, 24.837917 ], [ 66.755973, 24.852084 ], [ 66.67208, 24.824862 ], [ 66.653197, 24.838473 ], [ 66.678749, 24.877084 ], [ 66.720138, 24.885694 ], [ 66.706527, 24.889583 ], [ 66.72625, 24.920973 ], [ 66.69403, 24.887639 ], [ 66.687637, 24.907507 ], [ 66.741783, 24.975636 ], [ 66.920937, 25.03661 ], [ 66.975403, 25.073708 ], [ 67.019249, 25.138809 ], [ 67.035088, 25.215942 ], [ 67.092323, 25.253613 ], [ 67.072441, 25.286486 ], [ 67.169762, 25.468098 ], [ 67.196098, 25.47646 ], [ 67.218048, 25.518259 ], [ 67.335175, 25.630219 ], [ 67.386711, 25.763092 ], [ 67.46302, 25.840706 ], [ 67.438484, 25.946766 ], [ 67.453499, 25.99618 ], [ 67.44648, 26.112671 ], [ 67.374222, 26.196285 ], [ 67.276703, 26.39403 ], [ 67.20002, 26.511515 ], [ 67.154648, 26.707762 ], [ 67.159859, 26.752636 ], [ 67.179214, 26.771408 ], [ 67.164772, 26.930038 ], [ 67.186821, 27.093163 ], [ 67.168526, 27.24365 ], [ 67.144218, 27.300304 ], [ 67.197151, 27.408031 ], [ 67.212242, 27.554884 ], [ 67.277779, 27.626556 ], [ 67.291145, 27.690723 ], [ 67.370377, 27.743677 ], [ 67.424065, 27.891821 ], [ 67.759247, 27.943678 ], [ 67.923668, 28.011009 ], [ 67.993088, 28.103632 ], [ 68.086067, 28.155413 ], [ 68.197998, 28.251591 ], [ 68.367424, 28.315645 ], [ 68.40731, 28.396387 ], [ 68.465698, 28.439318 ], [ 69.079956, 28.460421 ], [ 69.390137, 28.456011 ], [ 69.402237, 28.479982 ], [ 69.47377, 28.495642 ], [ 69.591614, 28.478542 ], [ 69.571358, 28.44544 ], [ 69.691681, 28.433302 ], [ 69.719551, 28.394409 ], [ 69.784607, 28.354553 ], [ 69.805168, 28.164848 ], [ 69.835838, 28.087744 ], [ 69.964386, 27.949362 ], [ 70.048462, 27.901028 ], [ 70.180784, 27.855145 ], [ 70.107811, 27.766873 ], [ 70.016265, 27.555996 ], [ 69.936249, 27.502108 ], [ 69.86197, 27.402779 ], [ 69.578126, 27.165489 ], [ 69.513207, 27.016869 ], [ 69.48751, 26.793655 ], [ 69.51545, 26.740056 ], [ 69.721871, 26.653843 ], [ 69.815361, 26.592158 ], [ 69.879312, 26.581086 ], [ 70.066192, 26.59929 ], [ 70.167741, 26.550744 ], [ 70.1839, 26.486833 ], [ 70.164605, 26.290916 ], [ 70.172668, 26.245078 ], [ 70.145196, 26.166154 ], [ 70.082574, 26.073858 ], [ 70.096078, 25.944316 ], [ 70.177963, 25.8195 ], [ 70.244507, 25.76627 ], [ 70.279617, 25.70126 ], [ 70.399659, 25.6638 ], [ 70.536231, 25.676732 ], [ 70.61705, 25.70663 ], [ 70.665962, 25.697229 ], [ 70.681137, 25.66076 ], [ 70.676216, 25.523871 ], [ 70.687867, 25.51735 ], [ 70.674172, 25.38932 ], [ 70.744262, 25.320961 ], [ 70.766449, 25.264949 ], [ 70.894311, 25.144059 ], [ 70.945489, 24.934541 ], [ 71.023568, 24.821181 ], [ 71.072854, 24.711999 ], [ 71.107139, 24.68065 ], [ 71.020477, 24.630511 ], [ 71.000557, 24.599212 ], [ 70.998269, 24.54134 ], [ 71.015342, 24.522769 ], [ 71.007568, 24.442241 ], [ 71.118949, 24.43105 ], [ 71.131767, 24.4018 ], [ 71.047189, 24.34734 ], [ 70.998429, 24.36057 ], [ 70.959747, 24.346241 ], [ 70.88514, 24.290751 ], [ 70.894104, 24.257097 ], [ 70.805764, 24.222726 ], [ 70.725821, 24.220866 ], [ 70.655305, 24.225089 ], [ 70.57425, 24.252332 ], [ 70.587806, 24.285397 ], [ 70.572258, 24.293577 ], [ 70.587419, 24.310147 ], [ 70.572066, 24.34455 ], [ 70.611869, 24.400539 ], [ 70.560128, 24.418595 ], [ 70.119042, 24.290699 ], [ 70.059304, 24.192803 ], [ 70.024087, 24.169353 ], [ 69.978684, 24.16505 ], [ 69.724579, 24.175096 ], [ 69.600678, 24.277847 ], [ 69.501167, 24.255021 ], [ 69.43158, 24.273653 ], [ 69.310273, 24.276687 ], [ 69.199769, 24.235199 ], [ 69.092925, 24.269083 ], [ 69.000534, 24.22588 ], [ 68.970566, 24.237529 ], [ 68.947243, 24.276627 ], [ 68.918227, 24.25312 ], [ 68.89795, 24.198861 ], [ 68.878447, 24.19694 ], [ 68.847725, 24.208379 ], [ 68.826355, 24.308396 ], [ 68.764121, 24.284123 ], [ 68.749245, 23.962045 ], [ 68.547082, 23.963187 ], [ 68.557358, 23.969304 ], [ 68.548194, 23.987637 ], [ 68.534859, 23.952361 ], [ 68.51403, 23.949583 ], [ 68.496245, 24.012083 ], [ 68.440972, 23.99125 ], [ 68.428749, 24.004861 ], [ 68.392365, 23.968472 ], [ 68.369026, 23.994584 ], [ 68.334862, 23.97125 ], [ 68.328476, 23.930139 ], [ 68.291253, 23.944307 ], [ 68.291809, 23.955415 ], [ 68.289307, 23.958471 ], [ 68.245698, 23.904862 ], [ 68.197913, 23.88375 ], [ 68.191803, 23.85514 ], [ 68.149306, 23.85486 ], [ 68.144028, 23.869029 ], [ 68.153199, 23.885694 ], [ 68.157083, 23.899027 ], [ 68.156807, 23.901805 ], [ 68.155136, 23.903195 ], [ 68.142913, 23.871805 ], [ 68.147362, 23.852362 ], [ 68.133469, 23.849861 ], [ 68.11403, 23.857916 ], [ 68.126526, 23.902915 ], [ 68.122916, 23.947083 ], [ 68.11792, 23.953193 ], [ 68.11042, 23.959584 ], [ 68.108476, 23.959862 ], [ 68.11847, 23.970972 ], [ 68.097084, 23.969862 ], [ 68.095414, 23.99014 ], [ 68.08764, 24.002083 ], [ 68.053476, 24.023472 ], [ 68.052917, 24.04486 ], [ 68.032913, 24.005971 ], [ 67.998749, 24.020694 ], [ 67.994309, 24.037361 ], [ 67.947915, 24.023194 ], [ 67.931526, 24.058471 ], [ 67.849304, 24.094306 ], [ 67.79403, 24.062639 ], [ 67.774024, 24.078472 ], [ 67.752914, 24.084861 ], [ 67.715142, 24.04236 ], [ 67.702081, 24.049862 ], [ 67.685142, 24.083195 ], [ 67.675697, 24.089305 ], [ 67.646249, 24.080138 ], [ 67.641251, 24.065415 ], [ 67.546805, 24.080138 ], [ 67.486527, 24.037361 ], [ 67.460693, 24.084583 ], [ 67.409859, 24.064305 ], [ 67.407363, 24.082639 ], [ 67.431809, 24.089027 ], [ 67.447914, 24.120696 ], [ 67.449302, 24.14875 ], [ 67.444306, 24.154306 ], [ 67.43792, 24.15625 ], [ 67.430968, 24.15014 ], [ 67.417357, 24.176528 ], [ 67.422638, 24.167917 ], [ 67.425414, 24.168193 ], [ 67.429307, 24.172637 ], [ 67.432639, 24.170415 ], [ 67.443747, 24.168193 ], [ 67.450692, 24.172083 ], [ 67.42958, 24.174027 ], [ 67.42347, 24.168751 ], [ 67.410973, 24.185972 ], [ 67.388747, 24.190139 ], [ 67.379303, 24.185972 ], [ 67.367362, 24.204584 ], [ 67.371528, 24.209028 ], [ 67.381532, 24.206528 ], [ 67.390138, 24.210972 ], [ 67.373748, 24.209584 ], [ 67.376527, 24.214307 ], [ 67.374031, 24.223195 ], [ 67.357361, 24.234862 ], [ 67.412918, 24.229584 ], [ 67.415696, 24.200696 ], [ 67.433747, 24.191529 ], [ 67.444862, 24.202084 ], [ 67.455139, 24.190417 ], [ 67.460693, 24.190139 ], [ 67.44403, 24.215139 ], [ 67.434585, 24.195139 ], [ 67.417916, 24.201806 ], [ 67.42958, 24.219029 ], [ 67.42958, 24.240694 ], [ 67.455697, 24.250973 ], [ 67.468193, 24.230694 ], [ 67.461807, 24.243195 ], [ 67.471252, 24.240694 ], [ 67.47625, 24.248193 ], [ 67.478194, 24.240694 ], [ 67.484307, 24.23625 ], [ 67.50486, 24.234582 ], [ 67.488747, 24.250139 ], [ 67.501252, 24.259028 ], [ 67.513473, 24.271805 ], [ 67.490973, 24.255137 ], [ 67.483475, 24.27097 ], [ 67.431527, 24.290138 ], [ 67.439583, 24.29375 ], [ 67.442086, 24.303473 ], [ 67.45208, 24.297083 ], [ 67.463471, 24.300139 ], [ 67.469025, 24.293194 ], [ 67.488471, 24.285694 ], [ 67.500694, 24.290138 ], [ 67.507919, 24.305973 ], [ 67.485695, 24.287916 ], [ 67.467918, 24.315416 ], [ 67.512085, 24.33875 ], [ 67.529304, 24.331249 ], [ 67.519859, 24.31264 ], [ 67.527084, 24.299583 ], [ 67.518195, 24.284028 ], [ 67.519027, 24.282918 ], [ 67.528472, 24.300139 ], [ 67.522088, 24.313472 ], [ 67.528199, 24.319306 ], [ 67.534585, 24.31375 ], [ 67.537919, 24.315416 ], [ 67.52903, 24.320694 ], [ 67.530418, 24.332361 ], [ 67.509865, 24.361249 ], [ 67.532082, 24.37125 ], [ 67.509307, 24.36264 ], [ 67.482917, 24.324307 ], [ 67.458749, 24.332917 ], [ 67.465142, 24.344862 ], [ 67.44625, 24.33875 ], [ 67.44986, 24.353751 ], [ 67.439857, 24.321529 ], [ 67.424309, 24.325971 ], [ 67.424309, 24.330695 ], [ 67.417916, 24.338472 ], [ 67.434303, 24.34986 ], [ 67.437637, 24.362918 ], [ 67.441803, 24.363193 ], [ 67.455139, 24.375694 ], [ 67.457917, 24.363471 ], [ 67.47264, 24.378195 ], [ 67.472084, 24.422638 ], [ 67.428748, 24.439027 ], [ 67.408195, 24.435693 ], [ 67.415137, 24.44764 ], [ 67.374863, 24.47125 ], [ 67.331254, 24.45847 ], [ 67.32792, 24.47986 ], [ 67.339584, 24.468471 ], [ 67.352081, 24.474028 ], [ 67.380691, 24.537917 ], [ 67.37014, 24.527916 ], [ 67.34375, 24.548471 ], [ 67.301529, 24.554582 ], [ 67.306525, 24.562916 ], [ 67.297081, 24.575695 ], [ 67.315697, 24.571527 ], [ 67.322639, 24.58875 ], [ 67.332915, 24.585696 ], [ 67.340416, 24.588194 ], [ 67.349305, 24.580694 ], [ 67.355415, 24.581528 ], [ 67.33986, 24.589582 ], [ 67.340699, 24.610138 ], [ 67.38292, 24.60403 ], [ 67.378471, 24.631806 ], [ 67.444579, 24.639028 ], [ 67.417084, 24.673195 ], [ 67.437364, 24.680973 ], [ 67.429031, 24.696806 ], [ 67.387359, 24.702083 ], [ 67.419586, 24.712359 ], [ 67.378753, 24.715694 ], [ 67.39264, 24.724028 ], [ 67.38292, 24.734027 ], [ 67.42347, 24.74264 ], [ 67.431809, 24.765693 ], [ 67.407363, 24.779582 ], [ 67.373475, 24.782639 ], [ 67.328193, 24.764305 ], [ 67.292085, 24.799028 ], [ 67.294587, 24.783193 ], [ 67.260414, 24.792083 ], [ 67.243468, 24.784305 ], [ 67.214302, 24.812915 ], [ 67.200416, 24.798194 ], [ 67.199859, 24.80486 ] ] ], [ [ [ 68.55236, 23.973473 ], [ 68.550416, 23.970138 ], [ 68.54847, 23.972917 ], [ 68.55236, 23.973473 ] ] ], [ [ [ 68.185417, 23.837916 ], [ 68.192918, 23.77764 ], [ 68.164308, 23.730416 ], [ 68.142081, 23.734029 ], [ 68.159583, 23.728194 ], [ 68.158195, 23.707639 ], [ 68.133469, 23.706807 ], [ 68.108476, 23.732639 ], [ 68.108193, 23.717084 ], [ 68.070136, 23.721528 ], [ 68.073197, 23.708471 ], [ 68.064858, 23.708195 ], [ 68.055695, 23.733195 ], [ 68.085418, 23.75125 ], [ 68.095696, 23.774028 ], [ 68.078475, 23.759861 ], [ 68.085418, 23.805416 ], [ 68.126251, 23.794861 ], [ 68.094024, 23.811807 ], [ 68.185417, 23.837916 ] ] ], [ [ [ 68.098199, 23.923751 ], [ 68.107635, 23.959862 ], [ 68.122087, 23.947083 ], [ 68.111527, 23.858194 ], [ 68.123192, 23.849861 ], [ 68.084588, 23.842639 ], [ 68.052917, 23.893473 ], [ 68.098199, 23.923751 ] ] ], [ [ [ 68.108749, 23.712361 ], [ 68.107635, 23.710139 ], [ 68.104859, 23.712361 ], [ 68.108749, 23.712361 ] ] ], [ [ [ 68.092918, 23.709029 ], [ 68.097641, 23.705417 ], [ 68.093474, 23.706249 ], [ 68.092918, 23.709029 ] ] ], [ [ [ 68.091248, 23.986806 ], [ 68.09375, 23.939582 ], [ 68.067643, 23.919307 ], [ 68.058747, 23.945695 ], [ 68.091248, 23.986806 ] ] ], [ [ [ 68.090698, 23.707917 ], [ 68.08764, 23.702916 ], [ 68.084305, 23.705695 ], [ 68.090698, 23.707917 ] ] ], [ [ [ 68.052917, 24.02014 ], [ 68.086249, 23.994028 ], [ 68.054581, 23.945416 ], [ 68.06292, 23.920973 ], [ 68.045692, 23.910694 ], [ 68.018197, 23.942084 ], [ 68.052917, 24.02014 ] ] ], [ [ [ 68.075141, 23.704861 ], [ 68.072365, 23.705973 ], [ 68.076805, 23.707639 ], [ 68.075141, 23.704861 ] ] ], [ [ [ 67.996246, 24.015972 ], [ 68.025413, 24.000417 ], [ 68.002083, 23.939582 ], [ 68.037636, 23.904027 ], [ 68.046807, 23.827918 ], [ 68.033752, 23.77764 ], [ 68.014031, 23.77014 ], [ 67.999581, 23.794861 ], [ 67.981247, 23.772084 ], [ 67.950418, 23.792361 ], [ 67.941802, 23.779862 ], [ 67.941529, 23.797915 ], [ 67.964302, 23.813195 ], [ 67.953194, 23.836526 ], [ 67.917915, 23.839026 ], [ 67.863747, 23.902361 ], [ 67.918197, 23.979861 ], [ 67.948195, 23.983195 ], [ 67.963753, 24.008473 ], [ 67.996246, 24.015972 ] ] ], [ [ [ 68.041809, 24.018472 ], [ 68.046248, 24.013471 ], [ 68.040138, 24.012083 ], [ 68.041809, 24.018472 ] ] ], [ [ [ 67.991807, 23.757085 ], [ 68.00042, 23.759307 ], [ 68.00042, 23.757638 ], [ 67.991807, 23.757085 ] ] ], [ [ [ 67.882636, 24.072082 ], [ 67.928191, 24.050138 ], [ 67.95153, 23.994584 ], [ 67.912361, 23.985415 ], [ 67.866805, 23.999585 ], [ 67.883468, 24.018472 ], [ 67.872642, 24.060139 ], [ 67.882636, 24.072082 ] ] ], [ [ [ 67.940971, 23.772362 ], [ 67.940414, 23.769861 ], [ 67.939583, 23.771806 ], [ 67.940971, 23.772362 ] ] ], [ [ [ 67.93708, 23.77764 ], [ 67.940139, 23.77514 ], [ 67.939858, 23.773196 ], [ 67.93708, 23.77764 ] ] ], [ [ [ 67.850692, 24.086527 ], [ 67.871247, 24.075972 ], [ 67.867364, 24.059029 ], [ 67.879584, 24.021804 ], [ 67.862641, 24.011249 ], [ 67.863473, 23.994862 ], [ 67.901801, 23.975139 ], [ 67.831253, 23.897917 ], [ 67.830697, 23.915972 ], [ 67.824028, 23.918751 ], [ 67.826248, 23.849305 ], [ 67.834587, 23.840973 ], [ 67.824302, 23.821251 ], [ 67.777917, 23.812917 ], [ 67.750968, 23.849305 ], [ 67.762086, 23.848193 ], [ 67.769028, 23.852362 ], [ 67.740974, 23.855418 ], [ 67.750136, 23.872361 ], [ 67.732917, 23.876249 ], [ 67.712913, 23.918473 ], [ 67.697083, 23.933196 ], [ 67.718194, 23.964306 ], [ 67.729027, 23.954861 ], [ 67.733749, 23.954027 ], [ 67.717918, 23.971526 ], [ 67.726249, 23.973195 ], [ 67.732635, 23.980139 ], [ 67.752083, 23.975417 ], [ 67.761254, 23.980417 ], [ 67.765976, 24.01625 ], [ 67.736528, 24.038474 ], [ 67.752914, 24.080138 ], [ 67.792916, 24.059029 ], [ 67.850692, 24.086527 ] ] ], [ [ [ 67.826804, 23.891526 ], [ 67.832641, 23.88625 ], [ 67.830697, 23.883194 ], [ 67.826804, 23.891526 ] ] ], [ [ [ 67.764306, 23.824862 ], [ 67.766525, 23.824305 ], [ 67.767364, 23.821251 ], [ 67.764306, 23.824862 ] ] ], [ [ [ 67.728751, 24.020972 ], [ 67.76403, 24.017084 ], [ 67.759866, 23.980139 ], [ 67.732361, 23.981251 ], [ 67.717636, 23.973748 ], [ 67.734581, 23.987918 ], [ 67.722085, 23.999585 ], [ 67.728751, 24.020972 ] ] ], [ [ [ 67.760695, 23.827918 ], [ 67.762086, 23.824862 ], [ 67.759866, 23.828194 ], [ 67.760695, 23.827918 ] ] ], [ [ [ 67.734864, 23.873193 ], [ 67.739303, 23.854306 ], [ 67.748475, 23.847639 ], [ 67.737357, 23.840139 ], [ 67.708191, 23.870139 ], [ 67.734864, 23.873193 ] ] ], [ [ [ 67.678473, 24.085695 ], [ 67.707359, 24.039027 ], [ 67.720414, 24.039305 ], [ 67.738747, 24.059861 ], [ 67.733749, 24.039584 ], [ 67.73764, 24.025694 ], [ 67.724587, 24.025416 ], [ 67.681252, 24.002639 ], [ 67.678473, 23.994304 ], [ 67.66375, 23.999307 ], [ 67.660698, 23.999307 ], [ 67.658196, 23.997084 ], [ 67.648751, 23.983195 ], [ 67.673471, 23.960418 ], [ 67.613197, 23.929583 ], [ 67.617919, 23.923195 ], [ 67.608474, 23.920417 ], [ 67.607918, 23.88236 ], [ 67.581802, 23.897361 ], [ 67.591529, 23.935138 ], [ 67.582916, 23.941804 ], [ 67.602637, 23.967362 ], [ 67.608192, 24.021528 ], [ 67.600418, 23.965972 ], [ 67.578194, 23.94014 ], [ 67.545976, 23.957083 ], [ 67.515137, 23.919026 ], [ 67.486809, 23.924305 ], [ 67.496247, 23.967362 ], [ 67.520974, 23.970416 ], [ 67.525413, 23.979029 ], [ 67.532914, 23.980693 ], [ 67.545135, 23.993472 ], [ 67.537361, 23.990972 ], [ 67.532914, 23.981805 ], [ 67.524864, 23.979583 ], [ 67.522362, 23.975139 ], [ 67.516251, 23.984027 ], [ 67.509026, 23.98986 ], [ 67.520415, 23.976249 ], [ 67.512917, 23.973748 ], [ 67.49514, 24.003471 ], [ 67.498474, 23.974307 ], [ 67.450692, 23.980973 ], [ 67.475692, 24.02375 ], [ 67.537919, 24.071806 ], [ 67.645973, 24.058751 ], [ 67.678473, 24.085695 ] ] ], [ [ [ 67.718194, 24.012362 ], [ 67.720414, 23.995972 ], [ 67.732085, 23.987362 ], [ 67.710694, 23.979861 ], [ 67.693475, 23.938472 ], [ 67.649583, 23.938194 ], [ 67.670975, 23.949307 ], [ 67.677361, 23.959027 ], [ 67.676247, 23.970972 ], [ 67.659028, 23.979861 ], [ 67.661248, 23.998472 ], [ 67.677917, 23.992082 ], [ 67.718194, 24.012362 ] ] ], [ [ [ 67.684586, 23.887916 ], [ 67.727912, 23.814029 ], [ 67.68653, 23.814307 ], [ 67.695136, 23.832362 ], [ 67.689858, 23.842361 ], [ 67.675141, 23.806528 ], [ 67.649025, 23.82986 ], [ 67.651803, 23.841807 ], [ 67.66014, 23.837638 ], [ 67.669587, 23.840417 ], [ 67.672919, 23.845139 ], [ 67.672639, 23.852084 ], [ 67.660698, 23.838751 ], [ 67.640694, 23.85486 ], [ 67.655693, 23.86375 ], [ 67.66014, 23.879584 ], [ 67.678193, 23.88236 ], [ 67.683198, 23.885416 ], [ 67.684586, 23.887916 ] ] ], [ [ [ 67.674027, 23.935418 ], [ 67.707086, 23.919861 ], [ 67.709588, 23.892085 ], [ 67.723473, 23.879306 ], [ 67.689858, 23.889304 ], [ 67.683747, 23.888472 ], [ 67.678749, 23.88375 ], [ 67.66153, 23.88125 ], [ 67.653747, 23.877083 ], [ 67.653198, 23.864307 ], [ 67.643753, 23.870417 ], [ 67.642365, 23.907638 ], [ 67.674027, 23.935418 ] ] ], [ [ [ 67.647361, 23.840973 ], [ 67.647637, 23.833472 ], [ 67.643197, 23.83375 ], [ 67.647361, 23.840973 ] ] ], [ [ [ 67.640419, 23.930696 ], [ 67.622917, 23.862638 ], [ 67.630691, 23.853472 ], [ 67.627357, 23.848749 ], [ 67.612084, 23.859306 ], [ 67.621529, 23.872361 ], [ 67.60875, 23.897083 ], [ 67.612914, 23.918751 ], [ 67.618468, 23.917638 ], [ 67.625137, 23.925139 ], [ 67.625693, 23.931249 ], [ 67.640419, 23.930696 ] ] ], [ [ [ 67.634026, 23.880137 ], [ 67.636528, 23.875139 ], [ 67.634308, 23.872361 ], [ 67.634026, 23.880137 ] ] ], [ [ [ 67.617639, 23.920973 ], [ 67.615975, 23.919026 ], [ 67.613746, 23.920973 ], [ 67.617639, 23.920973 ] ] ], [ [ [ 67.55375, 23.951805 ], [ 67.564027, 23.940416 ], [ 67.590417, 23.935138 ], [ 67.579026, 23.919026 ], [ 67.574027, 23.884582 ], [ 67.557914, 23.917638 ], [ 67.530136, 23.908194 ], [ 67.55375, 23.951805 ] ] ], [ [ [ 67.556526, 23.901805 ], [ 67.560143, 23.900139 ], [ 67.560143, 23.897639 ], [ 67.556526, 23.901805 ] ] ], [ [ [ 67.556526, 23.903474 ], [ 67.55375, 23.902361 ], [ 67.553192, 23.903749 ], [ 67.556526, 23.903474 ] ] ], [ [ [ 67.552086, 23.907362 ], [ 67.556252, 23.904305 ], [ 67.554306, 23.903749 ], [ 67.552086, 23.907362 ] ] ], [ [ [ 67.550698, 23.909584 ], [ 67.552086, 23.904583 ], [ 67.551247, 23.904305 ], [ 67.550698, 23.909584 ] ] ], [ [ [ 67.435417, 24.275417 ], [ 67.482636, 24.26736 ], [ 67.489303, 24.238194 ], [ 67.478194, 24.249305 ], [ 67.455414, 24.252917 ], [ 67.428748, 24.245139 ], [ 67.435417, 24.275417 ] ] ], [ [ [ 67.475418, 24.036805 ], [ 67.478194, 24.032083 ], [ 67.470138, 24.029307 ], [ 67.475418, 24.036805 ] ] ], [ [ [ 67.467635, 24.297083 ], [ 67.474586, 24.295138 ], [ 67.475136, 24.293194 ], [ 67.467635, 24.297083 ] ] ], [ [ [ 67.466805, 24.057639 ], [ 67.473198, 24.053195 ], [ 67.472916, 24.050138 ], [ 67.466805, 24.057639 ] ] ], [ [ [ 67.42958, 24.433751 ], [ 67.466805, 24.421528 ], [ 67.469864, 24.377641 ], [ 67.464583, 24.373194 ], [ 67.457085, 24.377082 ], [ 67.44764, 24.374026 ], [ 67.440696, 24.364306 ], [ 67.439025, 24.377641 ], [ 67.451804, 24.384583 ], [ 67.44986, 24.391806 ], [ 67.427917, 24.377082 ], [ 67.42958, 24.389584 ], [ 67.41153, 24.39875 ], [ 67.42958, 24.409305 ], [ 67.43792, 24.418194 ], [ 67.410415, 24.39986 ], [ 67.41153, 24.388471 ], [ 67.385971, 24.402638 ], [ 67.367362, 24.402916 ], [ 67.42958, 24.433751 ] ] ], [ [ [ 67.451804, 24.334583 ], [ 67.469581, 24.299583 ], [ 67.415137, 24.315416 ], [ 67.439308, 24.315416 ], [ 67.451804, 24.334583 ] ] ], [ [ [ 67.462363, 24.066249 ], [ 67.468193, 24.016528 ], [ 67.409027, 24.006805 ], [ 67.418198, 24.026251 ], [ 67.407639, 24.020416 ], [ 67.397919, 24.050416 ], [ 67.406251, 24.036805 ], [ 67.462363, 24.066249 ] ] ], [ [ [ 67.44014, 24.134582 ], [ 67.44542, 24.120971 ], [ 67.428475, 24.118195 ], [ 67.42736, 24.12764 ], [ 67.44014, 24.134582 ] ] ], [ [ [ 67.420136, 24.149306 ], [ 67.430968, 24.147918 ], [ 67.444306, 24.152916 ], [ 67.437364, 24.140417 ], [ 67.420136, 24.149306 ] ] ], [ [ [ 67.442086, 24.147362 ], [ 67.441254, 24.143473 ], [ 67.44014, 24.142915 ], [ 67.442086, 24.147362 ] ] ], [ [ [ 67.370414, 24.384027 ], [ 67.414025, 24.384027 ], [ 67.425972, 24.389862 ], [ 67.426804, 24.376529 ], [ 67.439025, 24.375694 ], [ 67.416808, 24.339862 ], [ 67.421524, 24.327083 ], [ 67.369309, 24.34736 ], [ 67.383751, 24.354861 ], [ 67.385971, 24.359583 ], [ 67.371528, 24.352639 ], [ 67.36847, 24.383751 ], [ 67.407639, 24.36764 ], [ 67.370414, 24.384027 ] ] ], [ [ [ 67.438193, 23.97125 ], [ 67.437364, 23.96875 ], [ 67.436805, 23.971526 ], [ 67.438193, 23.97125 ] ] ], [ [ [ 67.352913, 24.339028 ], [ 67.435417, 24.304027 ], [ 67.438193, 24.294307 ], [ 67.395972, 24.296807 ], [ 67.375968, 24.273751 ], [ 67.369582, 24.289862 ], [ 67.336808, 24.252083 ], [ 67.31736, 24.250973 ], [ 67.299583, 24.281806 ], [ 67.310692, 24.301805 ], [ 67.309586, 24.309306 ], [ 67.30764, 24.299029 ], [ 67.296524, 24.302639 ], [ 67.322639, 24.31875 ], [ 67.315414, 24.330695 ], [ 67.340972, 24.339862 ], [ 67.343192, 24.328473 ], [ 67.346809, 24.325971 ], [ 67.352363, 24.326805 ], [ 67.352913, 24.339028 ] ] ], [ [ [ 67.436532, 24.137639 ], [ 67.434303, 24.135417 ], [ 67.433471, 24.135417 ], [ 67.436532, 24.137639 ] ] ], [ [ [ 67.420136, 24.697638 ], [ 67.433471, 24.684305 ], [ 67.413193, 24.67236 ], [ 67.434029, 24.64125 ], [ 67.409859, 24.655417 ], [ 67.386527, 24.646251 ], [ 67.39264, 24.664862 ], [ 67.381805, 24.654861 ], [ 67.367362, 24.669306 ], [ 67.342087, 24.67236 ], [ 67.420136, 24.697638 ] ] ], [ [ [ 67.409583, 24.284028 ], [ 67.422921, 24.289304 ], [ 67.431809, 24.28514 ], [ 67.430139, 24.251805 ], [ 67.427917, 24.264304 ], [ 67.410415, 24.261528 ], [ 67.411247, 24.269307 ], [ 67.398194, 24.280418 ], [ 67.409583, 24.284028 ] ] ], [ [ [ 67.382637, 24.172083 ], [ 67.414306, 24.179582 ], [ 67.415137, 24.15264 ], [ 67.430139, 24.137917 ], [ 67.425972, 24.130972 ], [ 67.397087, 24.128194 ], [ 67.403749, 24.148196 ], [ 67.387642, 24.131806 ], [ 67.355415, 24.155416 ], [ 67.36708, 24.15875 ], [ 67.358749, 24.174306 ], [ 67.382637, 24.172083 ] ] ], [ [ [ 67.407639, 24.772638 ], [ 67.429307, 24.761527 ], [ 67.421806, 24.74736 ], [ 67.412361, 24.757639 ], [ 67.408751, 24.745138 ], [ 67.400138, 24.75347 ], [ 67.387915, 24.752917 ], [ 67.407639, 24.772638 ] ] ], [ [ [ 67.367921, 24.124584 ], [ 67.424546, 24.12764 ], [ 67.428748, 24.094028 ], [ 67.382637, 24.080695 ], [ 67.367921, 24.124584 ] ] ], [ [ [ 67.396248, 24.281666 ], [ 67.402917, 24.269029 ], [ 67.410142, 24.269029 ], [ 67.410415, 24.260694 ], [ 67.42736, 24.263194 ], [ 67.422921, 24.216855 ], [ 67.41764, 24.239306 ], [ 67.348197, 24.257084 ], [ 67.365136, 24.278749 ], [ 67.378197, 24.270695 ], [ 67.396248, 24.281666 ] ] ], [ [ [ 67.369858, 24.455694 ], [ 67.38903, 24.455138 ], [ 67.413476, 24.444859 ], [ 67.394302, 24.432639 ], [ 67.386803, 24.450694 ], [ 67.369858, 24.455694 ] ] ], [ [ [ 67.408195, 24.005971 ], [ 67.412086, 24.000417 ], [ 67.411803, 23.999307 ], [ 67.408195, 24.005971 ] ] ], [ [ [ 67.391526, 24.284306 ], [ 67.403199, 24.287362 ], [ 67.409583, 24.28486 ], [ 67.391526, 24.284306 ] ] ], [ [ [ 67.400138, 24.751248 ], [ 67.404305, 24.739862 ], [ 67.383193, 24.737361 ], [ 67.378753, 24.726529 ], [ 67.380141, 24.745972 ], [ 67.385696, 24.744584 ], [ 67.400138, 24.751248 ] ] ], [ [ [ 67.380141, 24.708195 ], [ 67.385696, 24.700139 ], [ 67.393752, 24.69486 ], [ 67.367638, 24.690416 ], [ 67.383193, 24.698473 ], [ 67.380141, 24.708195 ] ] ], [ [ [ 67.37458, 24.775418 ], [ 67.392914, 24.767084 ], [ 67.375136, 24.741806 ], [ 67.377083, 24.724582 ], [ 67.34375, 24.74375 ], [ 67.359025, 24.750138 ], [ 67.37458, 24.775418 ] ] ], [ [ [ 67.392082, 24.425694 ], [ 67.389579, 24.422916 ], [ 67.388779, 24.423199 ], [ 67.392082, 24.425694 ] ] ], [ [ [ 67.321527, 24.445972 ], [ 67.369582, 24.45375 ], [ 67.387086, 24.449028 ], [ 67.387642, 24.444028 ], [ 67.390138, 24.438473 ], [ 67.297919, 24.437361 ], [ 67.308472, 24.450972 ], [ 67.321527, 24.445972 ] ] ], [ [ [ 67.353471, 24.23375 ], [ 67.373748, 24.218471 ], [ 67.365418, 24.20486 ], [ 67.364586, 24.196527 ], [ 67.378753, 24.184584 ], [ 67.389862, 24.181804 ], [ 67.382363, 24.172918 ], [ 67.336808, 24.202084 ], [ 67.335976, 24.214307 ], [ 67.350693, 24.20514 ], [ 67.33986, 24.222083 ], [ 67.353471, 24.23375 ] ] ], [ [ [ 67.33986, 24.436805 ], [ 67.384583, 24.429582 ], [ 67.387359, 24.41875 ], [ 67.354027, 24.407639 ], [ 67.327081, 24.422362 ], [ 67.306808, 24.42375 ], [ 67.33986, 24.436805 ] ] ], [ [ [ 67.341804, 24.387637 ], [ 67.377639, 24.40125 ], [ 67.38292, 24.40236 ], [ 67.387086, 24.399306 ], [ 67.341804, 24.387637 ] ] ], [ [ [ 67.384308, 24.41653 ], [ 67.381805, 24.413473 ], [ 67.380973, 24.413749 ], [ 67.384308, 24.41653 ] ] ], [ [ [ 67.368753, 24.650973 ], [ 67.383751, 24.652083 ], [ 67.382081, 24.646805 ], [ 67.368753, 24.650973 ] ] ], [ [ [ 67.340972, 24.737083 ], [ 67.381249, 24.699582 ], [ 67.339584, 24.685693 ], [ 67.337638, 24.694026 ], [ 67.342362, 24.699307 ], [ 67.34014, 24.700139 ], [ 67.323471, 24.669584 ], [ 67.319031, 24.678749 ], [ 67.293473, 24.695138 ], [ 67.303473, 24.697082 ], [ 67.308198, 24.702363 ], [ 67.31347, 24.734861 ], [ 67.331254, 24.725695 ], [ 67.325973, 24.707917 ], [ 67.330695, 24.702083 ], [ 67.336526, 24.703751 ], [ 67.340972, 24.737083 ] ] ], [ [ [ 67.377083, 24.409305 ], [ 67.378197, 24.412361 ], [ 67.380141, 24.412361 ], [ 67.377083, 24.409305 ] ] ], [ [ [ 67.36847, 24.727639 ], [ 67.373748, 24.721806 ], [ 67.363472, 24.724307 ], [ 67.36847, 24.727639 ] ] ], [ [ [ 67.356803, 24.641806 ], [ 67.372916, 24.630139 ], [ 67.367638, 24.612638 ], [ 67.355142, 24.628471 ], [ 67.328193, 24.620973 ], [ 67.356803, 24.641806 ] ] ], [ [ [ 67.36653, 24.666806 ], [ 67.366806, 24.649305 ], [ 67.342636, 24.643748 ], [ 67.352639, 24.664862 ], [ 67.36653, 24.666806 ] ] ], [ [ [ 67.310974, 24.550693 ], [ 67.366806, 24.526806 ], [ 67.351525, 24.494861 ], [ 67.328751, 24.510695 ], [ 67.345138, 24.50986 ], [ 67.358193, 24.528194 ], [ 67.343192, 24.511529 ], [ 67.342362, 24.524584 ], [ 67.324859, 24.529028 ], [ 67.314858, 24.52875 ], [ 67.305137, 24.512917 ], [ 67.305137, 24.506806 ], [ 67.300698, 24.52514 ], [ 67.292914, 24.517639 ], [ 67.290694, 24.530972 ], [ 67.306808, 24.532084 ], [ 67.310974, 24.550693 ] ] ], [ [ [ 67.347917, 24.764305 ], [ 67.36486, 24.764583 ], [ 67.355698, 24.750416 ], [ 67.347917, 24.764305 ] ] ], [ [ [ 67.360696, 24.462083 ], [ 67.364028, 24.457082 ], [ 67.357917, 24.457917 ], [ 67.360696, 24.462083 ] ] ], [ [ [ 67.342087, 24.162361 ], [ 67.349305, 24.181804 ], [ 67.364028, 24.180416 ], [ 67.342087, 24.162361 ] ] ], [ [ [ 67.360137, 24.383193 ], [ 67.362357, 24.351805 ], [ 67.309028, 24.361527 ], [ 67.315697, 24.383473 ], [ 67.337082, 24.380417 ], [ 67.341804, 24.385973 ], [ 67.355142, 24.382361 ], [ 67.36042, 24.386527 ], [ 67.360137, 24.383193 ] ] ], [ [ [ 67.328476, 24.41875 ], [ 67.352363, 24.397916 ], [ 67.342087, 24.39875 ], [ 67.34014, 24.397084 ], [ 67.337364, 24.381805 ], [ 67.325417, 24.387361 ], [ 67.306808, 24.382361 ], [ 67.314582, 24.405971 ], [ 67.307916, 24.415418 ], [ 67.328476, 24.41875 ] ] ], [ [ [ 67.345414, 24.157362 ], [ 67.352081, 24.157916 ], [ 67.350419, 24.152362 ], [ 67.345414, 24.157362 ] ] ], [ [ [ 67.308198, 24.514029 ], [ 67.341804, 24.522918 ], [ 67.340699, 24.511251 ], [ 67.330695, 24.512361 ], [ 67.328476, 24.511529 ], [ 67.327637, 24.509582 ], [ 67.350975, 24.492915 ], [ 67.340699, 24.474306 ], [ 67.322365, 24.484029 ], [ 67.326805, 24.467888 ], [ 67.323471, 24.463193 ], [ 67.304581, 24.47986 ], [ 67.315414, 24.480416 ], [ 67.319863, 24.494305 ], [ 67.308198, 24.514029 ] ] ], [ [ [ 67.337082, 24.671529 ], [ 67.345694, 24.655971 ], [ 67.314026, 24.639862 ], [ 67.305137, 24.662916 ], [ 67.308472, 24.664862 ], [ 67.311806, 24.655971 ], [ 67.320695, 24.653749 ], [ 67.337082, 24.671529 ] ] ], [ [ [ 67.304032, 24.77014 ], [ 67.344024, 24.756251 ], [ 67.327637, 24.729029 ], [ 67.306252, 24.744862 ], [ 67.273751, 24.733473 ], [ 67.249581, 24.705139 ], [ 67.236526, 24.708471 ], [ 67.234306, 24.729583 ], [ 67.267365, 24.739027 ], [ 67.304032, 24.77014 ] ] ], [ [ [ 67.289582, 24.608472 ], [ 67.318192, 24.623193 ], [ 67.335138, 24.609584 ], [ 67.335418, 24.604859 ], [ 67.34014, 24.601805 ], [ 67.335138, 24.58875 ], [ 67.316802, 24.591807 ], [ 67.314582, 24.587916 ], [ 67.316253, 24.57653 ], [ 67.31375, 24.573749 ], [ 67.304032, 24.590973 ], [ 67.306252, 24.599027 ], [ 67.314309, 24.597639 ], [ 67.316528, 24.603196 ], [ 67.314309, 24.598473 ], [ 67.306808, 24.600139 ], [ 67.304581, 24.598195 ], [ 67.302635, 24.58625 ], [ 67.298751, 24.598195 ], [ 67.315414, 24.610138 ], [ 67.294587, 24.596527 ], [ 67.289582, 24.608472 ] ] ], [ [ [ 67.337638, 24.685418 ], [ 67.333474, 24.679861 ], [ 67.337638, 24.686528 ], [ 67.337638, 24.685418 ] ] ], [ [ [ 67.337082, 24.607362 ], [ 67.336526, 24.604584 ], [ 67.335976, 24.607084 ], [ 67.337082, 24.607362 ] ] ], [ [ [ 67.316528, 24.227083 ], [ 67.327081, 24.207082 ], [ 67.320419, 24.205694 ], [ 67.316528, 24.227083 ] ] ], [ [ [ 67.309304, 24.456529 ], [ 67.320419, 24.457641 ], [ 67.327081, 24.456807 ], [ 67.309304, 24.456529 ] ] ], [ [ [ 67.316802, 24.233472 ], [ 67.320419, 24.231528 ], [ 67.320419, 24.229584 ], [ 67.316802, 24.233472 ] ] ], [ [ [ 67.284584, 24.683749 ], [ 67.308198, 24.677361 ], [ 67.319304, 24.677083 ], [ 67.317084, 24.655971 ], [ 67.313155, 24.66625 ], [ 67.284584, 24.683749 ] ] ], [ [ [ 67.267365, 24.50125 ], [ 67.294587, 24.515139 ], [ 67.301247, 24.516251 ], [ 67.302086, 24.506806 ], [ 67.317916, 24.496249 ], [ 67.31347, 24.480972 ], [ 67.267365, 24.50125 ] ] ], [ [ [ 67.317916, 24.591529 ], [ 67.317084, 24.588194 ], [ 67.315697, 24.588472 ], [ 67.317916, 24.591529 ] ] ], [ [ [ 67.311806, 24.737918 ], [ 67.303193, 24.716528 ], [ 67.304032, 24.698194 ], [ 67.280694, 24.698194 ], [ 67.275139, 24.691804 ], [ 67.276527, 24.685418 ], [ 67.269027, 24.68403 ], [ 67.263472, 24.68875 ], [ 67.257079, 24.687916 ], [ 67.241249, 24.677917 ], [ 67.245415, 24.660418 ], [ 67.190415, 24.690972 ], [ 67.200142, 24.717084 ], [ 67.225135, 24.722919 ], [ 67.234582, 24.703473 ], [ 67.246803, 24.700695 ], [ 67.27903, 24.731527 ], [ 67.311806, 24.737918 ] ] ], [ [ [ 67.306525, 24.408473 ], [ 67.30986, 24.403748 ], [ 67.302917, 24.404307 ], [ 67.306525, 24.408473 ] ] ], [ [ [ 67.275413, 24.663194 ], [ 67.289862, 24.662362 ], [ 67.301247, 24.664304 ], [ 67.308472, 24.639584 ], [ 67.276254, 24.63264 ], [ 67.280418, 24.649861 ], [ 67.275413, 24.663194 ] ] ], [ [ [ 67.293197, 24.559584 ], [ 67.306252, 24.535972 ], [ 67.29097, 24.536807 ], [ 67.275971, 24.520695 ], [ 67.267083, 24.535419 ], [ 67.285699, 24.546807 ], [ 67.293197, 24.559584 ] ] ], [ [ [ 67.267365, 24.499584 ], [ 67.28653, 24.486805 ], [ 67.290412, 24.489861 ], [ 67.29097, 24.487917 ], [ 67.297363, 24.482638 ], [ 67.305137, 24.48236 ], [ 67.282913, 24.437361 ], [ 67.294305, 24.462083 ], [ 67.253472, 24.483748 ], [ 67.267365, 24.499584 ] ] ], [ [ [ 67.283752, 24.577362 ], [ 67.304581, 24.560972 ], [ 67.288192, 24.560972 ], [ 67.286248, 24.548471 ], [ 67.275971, 24.549861 ], [ 67.264031, 24.530972 ], [ 67.250137, 24.541529 ], [ 67.24208, 24.52764 ], [ 67.219863, 24.548195 ], [ 67.225693, 24.572361 ], [ 67.283752, 24.577362 ] ] ], [ [ [ 67.292914, 24.588472 ], [ 67.299027, 24.585416 ], [ 67.295136, 24.583194 ], [ 67.292914, 24.588472 ] ] ], [ [ [ 67.298195, 24.329305 ], [ 67.294587, 24.323195 ], [ 67.292358, 24.326529 ], [ 67.298195, 24.329305 ] ] ], [ [ [ 67.285699, 24.695972 ], [ 67.283196, 24.683195 ], [ 67.297942, 24.665917 ], [ 67.275971, 24.678473 ], [ 67.242363, 24.676251 ], [ 67.277083, 24.684305 ], [ 67.285699, 24.695972 ] ] ], [ [ [ 67.238746, 24.780139 ], [ 67.292358, 24.776806 ], [ 67.261802, 24.74736 ], [ 67.238746, 24.780139 ] ] ], [ [ [ 67.267914, 24.647639 ], [ 67.274581, 24.631527 ], [ 67.285972, 24.629583 ], [ 67.277642, 24.608194 ], [ 67.242919, 24.598195 ], [ 67.234582, 24.612916 ], [ 67.252084, 24.627361 ], [ 67.237358, 24.634582 ], [ 67.259582, 24.635416 ], [ 67.267914, 24.647639 ] ] ], [ [ [ 67.265136, 24.651805 ], [ 67.278474, 24.649861 ], [ 67.276254, 24.64597 ], [ 67.265136, 24.651805 ] ] ], [ [ [ 67.275413, 24.674305 ], [ 67.267083, 24.66625 ], [ 67.260414, 24.673195 ], [ 67.268753, 24.671807 ], [ 67.275413, 24.674305 ] ] ], [ [ [ 67.267083, 24.518195 ], [ 67.271529, 24.510695 ], [ 67.264304, 24.512361 ], [ 67.267083, 24.518195 ] ] ], [ [ [ 67.265419, 24.469027 ], [ 67.267914, 24.465139 ], [ 67.260972, 24.464861 ], [ 67.265419, 24.469027 ] ] ], [ [ [ 67.267639, 24.473194 ], [ 67.265136, 24.47014 ], [ 67.265695, 24.47375 ], [ 67.267639, 24.473194 ] ] ], [ [ [ 67.204026, 24.677917 ], [ 67.242363, 24.658749 ], [ 67.264031, 24.668194 ], [ 67.25847, 24.637084 ], [ 67.18486, 24.64597 ], [ 67.177086, 24.66375 ], [ 67.204026, 24.677917 ] ] ], [ [ [ 67.252915, 24.520695 ], [ 67.255691, 24.532084 ], [ 67.262643, 24.529584 ], [ 67.252915, 24.520695 ] ] ], [ [ [ 67.255691, 24.47514 ], [ 67.259582, 24.479584 ], [ 67.260696, 24.473194 ], [ 67.255691, 24.47514 ] ] ], [ [ [ 67.239861, 24.757083 ], [ 67.249032, 24.734307 ], [ 67.200142, 24.725695 ], [ 67.191253, 24.701251 ], [ 67.172637, 24.718472 ], [ 67.239861, 24.757083 ] ] ], [ [ [ 67.222642, 24.637084 ], [ 67.236253, 24.631527 ], [ 67.244583, 24.624027 ], [ 67.229584, 24.61375 ], [ 67.23014, 24.630971 ], [ 67.222642, 24.637084 ] ] ], [ [ [ 67.243751, 24.510695 ], [ 67.242637, 24.507638 ], [ 67.240417, 24.508194 ], [ 67.243751, 24.510695 ] ] ], [ [ [ 67.216506, 24.792359 ], [ 67.228196, 24.782639 ], [ 67.18486, 24.759583 ], [ 67.172364, 24.764305 ], [ 67.216506, 24.792359 ] ] ], [ [ [ 67.214027, 24.626249 ], [ 67.228196, 24.627083 ], [ 67.223474, 24.616807 ], [ 67.214027, 24.626249 ] ] ], [ [ [ 67.169586, 24.77125 ], [ 67.164581, 24.762083 ], [ 67.183197, 24.753195 ], [ 67.159585, 24.759027 ], [ 67.169586, 24.77125 ] ] ], [ [ [ 67.169303, 24.767362 ], [ 67.171249, 24.762083 ], [ 67.167642, 24.761807 ], [ 67.169303, 24.767362 ] ] ], [ [ [ 67.155419, 24.760417 ], [ 67.153199, 24.758195 ], [ 67.152916, 24.759861 ], [ 67.155419, 24.760417 ] ] ], [ [ [ 67.121528, 24.752917 ], [ 67.13208, 24.752082 ], [ 67.151802, 24.735417 ], [ 67.119857, 24.744584 ], [ 67.11792, 24.74875 ], [ 67.121528, 24.752917 ] ] ], [ [ [ 66.975975, 24.807639 ], [ 66.978751, 24.80486 ], [ 66.978469, 24.803472 ], [ 66.975975, 24.807639 ] ] ], [ [ [ 66.972641, 24.805973 ], [ 66.97097, 24.807082 ], [ 66.972641, 24.807082 ], [ 66.972641, 24.805973 ] ] ], [ [ [ 66.969865, 24.814307 ], [ 66.971253, 24.809029 ], [ 66.969865, 24.809861 ], [ 66.969865, 24.814307 ] ] ], [ [ [ 66.969307, 24.819305 ], [ 66.968475, 24.817083 ], [ 66.968192, 24.820418 ], [ 66.969307, 24.819305 ] ] ], [ [ [ 66.955971, 24.835695 ], [ 66.955971, 24.835139 ], [ 66.954864, 24.832916 ], [ 66.955971, 24.835695 ] ] ], [ [ [ 66.951249, 24.837917 ], [ 66.953752, 24.832916 ], [ 66.952079, 24.832641 ], [ 66.951249, 24.837917 ] ] ], [ [ [ 66.949585, 24.837083 ], [ 66.950141, 24.833751 ], [ 66.949303, 24.835139 ], [ 66.949585, 24.837083 ] ] ], [ [ [ 66.947365, 24.838751 ], [ 66.945419, 24.837361 ], [ 66.94458, 24.838473 ], [ 66.947365, 24.838751 ] ] ], [ [ [ 66.940697, 24.843195 ], [ 66.943192, 24.839583 ], [ 66.93847, 24.842637 ], [ 66.940697, 24.843195 ] ] ], [ [ [ 66.93847, 24.84403 ], [ 66.936248, 24.842083 ], [ 66.93847, 24.845139 ], [ 66.93847, 24.84403 ] ] ], [ [ [ 66.919861, 24.850416 ], [ 66.925139, 24.84403 ], [ 66.917358, 24.840417 ], [ 66.919861, 24.850416 ] ] ] ] } }
]
}
